<?xml version="1.0" encoding="UTF-8"?>
<kml xmlns="http://www.opengis.net/kml/2.2" xmlns:gx="http://www.google.com/kml/ext/2.2">
    <Document id="1">
        <Style id="4">
            <LineStyle id="5">
                <color>641400F0</color>
                <colorMode>normal</colorMode>
            </LineStyle>
            <PolyStyle id="6">
                <color>641400F0</color>
                <colorMode>normal</colorMode>
                <fill>1</fill>
                <outline>1</outline>
            </PolyStyle>
        </Style>
        <open>1</open>
        <Placemark id="3">
            <name>Rocket Trajectory - Powered by RocketPy</name>
            <styleUrl>#4</styleUrl>
            <LineString id="2">
                <extrude>1</extrude>
                <altitudeMode>absolute</altitudeMode>
                <coordinates>-8.288964,39.3897,160.0 -8.288963999954955,39.389699999950274,160.0000641977288 -8.288963999864809,39.389699999850784,160.00019267195333 -8.288963999504029,39.389699999452574,160.00070684758813 -8.288963998962679,39.38969999885506,160.0014783711533 -8.28896398449951,39.38969998289147,160.0220909877923 -8.288963951895052,39.38969994690461,160.06855821639724 -8.288963901065468,39.38969989080191,160.14099952692402 -8.28896290967492,39.389698796563636,161.5539096530631 -8.288960823082068,39.389696493505674,164.5276804967733 -8.288957606642146,39.38969294338886,169.11168741301924 -8.288957443914047,39.38969276377915,169.34360431442303 -8.28895732256354,39.38969262984257,169.51640732780572 -8.28895719997355,39.38969249454089,169.69083361495913 -8.288956952312766,39.38969222120529,170.04293557970027 -8.288956699686713,39.38969194240121,170.4015419997103 -8.288956442087898,39.389691658120285,170.76666420712073 -8.288954745985256,39.38968978654389,173.15895204566093 -8.288952858933483,39.38968770443121,175.80129266012 -8.28895077833891,39.38968540847001,178.69621387612463 -8.288948500989104,39.38968289438617,181.84619870784758 -8.288946110566215,39.38968025355358,185.13328213713805 -8.2889447966555,39.38967880100293,186.93221260987661 -8.288943430691626,39.38967728999687,188.79653490235697 -8.288942011979389,39.38967571956116,190.72653308312056 -8.288940400495846,39.38967393428609,192.91094949939347 -8.288938724123902,39.389672075376076,195.17448072072125 -8.288936981795114,39.38967014133214,197.51747900247918 -8.288934316299242,39.38966717849133,201.08317818102927 -8.28893150407095,39.38966404695072,204.8202403256276 -8.288928541589572,39.38966074183704,208.7296611573268 -8.288925425303663,39.38965725828203,212.812444147506 -8.28892512218998,39.38965691907767,213.2079809069834 -8.288924817664764,39.389656578229335,213.60508105720427 -8.28892451172531,39.38965623573343,214.00374541872543 -8.28892248325259,39.38965396326879,216.64001642993256 -8.28892039390987,39.38965161976583,219.34297288144364 -8.288918243065227,39.389649204406744,222.11283572798243 -8.288916030158042,39.38964671648423,224.94982484492934 -8.288912437463944,39.38964267160852,229.52984955438373 -8.288908689952798,39.3896384457431,234.27599124890128 -8.288904786856026,39.389634038232806,239.18906938764312 -8.288900727993308,39.38962944926808,244.26989220195745 -8.2888945067734,39.389622407019274,252.0110376861823 -8.28888949203337,39.38961672500589,258.2182736229629 -8.288884282995028,39.389610819230235,264.64203527038256 -8.288878881058553,39.389604691956286,271.2833363477671 -8.288873286985112,39.38959834437568,278.14312942530387 -8.28886750064699,39.38959177626915,285.22229932930844 -8.288861520777981,39.389584985683506,292.52165808365186 -8.288859995314317,39.38958325288475,294.3809905738841 -8.288856907471805,39.38957974462661,298.14112393009424 -8.288853770060937,39.389576178974046,301.9566179122376 -8.28885058263585,39.3895725552731,305.82755258559854 -8.288847344734377,39.389568872851626,309.754004614348 -8.28884405589602,39.389565131047824,313.73604771266395 -8.288838966655758,39.38955933787853,319.8853409941042 -8.288833757765467,39.38955340468111,326.1630617445783 -8.288828428242283,39.38954733015961,332.56944297047573 -8.288822977567785,39.38954111371646,339.10471272907637 -8.288817405697268,39.38953475544638,345.7690929809174 -8.28881171300272,39.38952825603178,352.56279616012574 -8.288805900158234,39.38952161655511,359.4860217881574 -8.28879996797072,39.38951483823749,366.5389535877047 -8.288793917178234,39.389507922138634,373.72175578441795 -8.288787115682169,39.38950014550165,381.7838942310144 -8.288780170933173,39.389492202385746,390.0039132252377 -8.28877452370694,39.389485741181815,396.67937752852845 -8.28876878424016,39.38947917228229,403.45555667465885 -8.28876295181207,39.389472494556735,410.33246946357303 -8.288757025673776,39.38946570685595,417.3101231571955 -8.2887510051706,39.38945880819702,424.38851638789794 -8.288744889848518,39.38945179791376,431.56764142849056 -8.288738679526395,39.38944467574826,438.8474861269013 -8.288732374316172,39.389437441867514,446.2280342576424 -8.288725974582924,39.389430096793234,453.7092641770181 -8.288719480851336,39.389422641250576,461.2911460525806 -8.288712893676372,39.38941507597172,468.97363866493623 -8.288706213509794,39.38940740149876,476.75668624395183 -8.288698414466962,39.38939843859358,485.8339668999133 -8.288692068966123,39.389391143671766,493.21221267719346 -8.288685644250158,39.389383755303946,500.67585534515916 -8.288679140029238,39.38937627294326,508.2247973240741 -8.288672556006105,39.38936869604602,515.858932464704 -8.288665891957635,39.38936102419043,523.5781479250982 -8.28865914779947,39.38935325716717,531.3823256096098 -8.288652323618246,39.38934539502032,539.2713429588557 -8.28864541966452,39.389337438026985,547.2450728280882 -8.288644029333506,39.38933583528517,548.8499726639843 -8.288643750823047,39.38933551420857,549.1714261230778 -8.288643472185736,39.38933519298113,549.4930148304051 -8.288643429093856,39.389335143302496,549.5427489740704 -8.288643385998942,39.389335093620225,549.5924863519641 -8.288643299803047,39.38933499424851,549.6919675760879 -8.288643282853219,39.389334974707694,549.7115297259239 -8.288643265902921,39.3893349551663,549.7310923758934 -8.288643259122729,39.38933494734967,549.7389175159024 -8.28864325234246,39.38933493953294,549.7467427359323 -8.28864324963034,39.38933493640622,549.7498728367476 -8.288643246918209,39.38933493327951,549.7530029503663 -8.288643241493922,39.38933492702603,549.7592632032104 -8.28864323606961,39.389334920772534,549.765523480361 -8.288643227042916,39.389334910365974,549.7759413112101 -8.288643218016233,39.38933489995943,549.7863591162308 -8.288643208989564,39.38933488955289,549.7967768954229 -8.288643118723577,39.38933478548838,549.9009532668191 -8.28864302845887,39.38933468142536,550.0051270555077 -8.28864293819544,39.38933457736382,550.1092982616086 -8.288642035631607,39.38933353683036,551.1508683060089 -8.288641133196144,39.38933249644622,552.192180223657 -8.288640230889438,39.38933145621205,553.233234133405 -8.288639328711875,39.38933041612847,554.2740301543259 -8.288637138291726,39.3893278908911,556.8005562427171 -8.288634948640516,39.38932536655349,559.3255637591969 -8.28863275976293,39.38932284312294,561.8490543762442 -8.288625566038494,39.389314550015015,570.138138376077 -8.288618380811862,39.38930626691155,578.4108817851451 -8.288611204068953,39.38929799378953,586.66732875182 -8.28860403570411,39.38928973049221,594.9075218320665 -8.288603246736246,39.3892888210212,595.8140466030118 -8.28860245786773,39.38928791166607,596.720374776626 -8.28860166909802,39.38928700242599,597.6265063991295 -8.288595939534863,39.38928039780148,604.2060475645525 -8.288590215069144,39.389273799087,610.7752303333967 -8.288584495610815,39.389267206162764,617.3340754250271 -8.288576661800267,39.38925817600631,626.3100158796011 -8.288570386763237,39.38925094269625,633.4935570854203 -8.288564117623764,39.38924371622729,640.6646953887426 -8.288557854413462,39.389236496666626,647.8234612499696 -8.288551597186814,39.38922928411085,654.9698854891031 -8.288544610096402,39.38922123042399,662.9434949959593 -8.288537630617917,39.389213185714524,670.901765416282 -8.288530658774803,39.38920515002085,678.8447380128107 -8.288523694542404,39.38919712330985,686.772452590339 -8.288518282352028,39.38919088555679,692.9288165104583 -8.288512874670198,39.38918465310171,699.0759903763158 -8.28850747144479,39.389178425872764,705.2139902153187 -8.288498909474688,39.38916855835132,714.9317710458674 -8.288491935619508,39.38916052123929,722.8392206089127 -8.288484968945053,39.38915249252178,730.7314325801218 -8.288478009417052,39.389144472173236,738.6084463935404 -8.288471057037492,39.3891364602191,746.47030150107 -8.288464111832257,39.38912845671709,754.3170377282128 -8.288457173835601,39.3891204617338,762.1486949808476 -8.288450243074863,39.38911247532074,769.9653127788814 -8.2884419585764,39.38910292929454,779.2997161790968 -8.288435138044072,39.38909507042383,786.9772752710862 -8.288428324481366,39.389087219812225,794.6403196454462 -8.288421517818918,39.389079377367004,802.2888838805511 -8.288414717977874,39.38907154298512,809.9230021536533 -8.288404516683354,39.389059790015466,821.3630420807838 -8.288396471640171,39.389050521587265,830.374009906056 -8.288388435904011,39.389041264169535,839.3648311000522 -8.288380409452044,39.389032017760336,848.3355640461546 -8.288372392293217,39.38902278239885,857.2862674907395 -8.288364384448593,39.38901355813605,866.217000035134 -8.288356385929408,39.38900434500466,875.1278196015649 -8.288348396721378,39.388995142995434,884.0187830063066 -8.288340416775686,39.38898595204868,892.8899457998431 -8.288332446011776,39.38897677206076,901.7413623706316 -8.288324484329841,39.38896760290367,910.5730862816323 -8.288315257611654,39.38895697730942,920.7959535693155 -8.288306042851573,39.38894636597795,930.992463497161 -8.2882968399633,39.38893576882716,941.1626999484646 -8.288287648908335,39.38892518584156,951.3067473615208 -8.288275491862871,39.388911188567974,964.7042408997918 -8.288266089922772,39.388900364171654,975.0498855301495 -8.288256700433942,39.38888955475739,985.3682553624793 -8.288247323328054,39.388878760235784,995.6594374551455 -8.288237958475914,39.38886798043508,1005.9235167467286 -8.288228605716698,39.38885721515201,1016.1605768983014 -8.288219264909715,39.38884646422317,1026.370701565596 -8.288209935961824,39.388835727558494,1036.5539750399716 -8.288200618831697,39.38882500513747,1046.710482251885 -8.288187112034768,39.38880946231634,1061.409540962986 -8.288177267232431,39.38879813441761,1072.1051005719469 -8.288167435671367,39.38878682252331,1082.770918846984 -8.288157617262808,39.38877552651564,1093.407092056515 -8.28814781185664,39.388764246209774,1104.0137143828695 -8.288138019281504,39.38875298140715,1114.5908789292346 -8.288128807719165,39.3887423856552,1124.5261687597158 -8.288119607354377,39.388731803466214,1134.4354881664178 -8.2881104181607,39.388721234822086,1144.3189159631481 -8.288101240131146,39.3887106797245,1154.176530803244 -8.288089949691065,39.38869769625018,1166.2840693530445 -8.288078676115838,39.38868473325217,1178.352700845181 -8.288067419284442,39.38867179058544,1190.3825660663347 -8.288056179024759,39.388658868044104,1202.3738033571317 -8.28804495514346,39.388645965401004,1214.3265493851845 -8.288033747464397,39.388633082454746,1226.2409400720142 -8.288022555857486,39.388620219063505,1238.117111273295 -8.288013429111839,39.38860972979086,1247.7864653735396 -8.288004313009791,39.38859925348918,1257.4305086130519 -8.28799520753203,39.388588790139615,1267.049308728242 -8.287984695415322,39.38857671131232,1278.1366114258985 -8.287974197384267,39.38856464966812,1289.1903788322302 -8.287963713332168,39.38855260508204,1300.2107311219177 -8.2879532431308,39.3885405774014,1311.1977773733586 -8.287942786644903,39.38852856646607,1322.1516230249697 -8.2879323437507,39.38851657213133,1333.0723730437485 -8.287921914349933,39.3885045942849,1343.9601327064468 -8.287911491986698,39.388492625518175,1354.821667866129 -8.287901083010494,39.38848067312722,1365.650394513146 -8.287890687377855,39.3884687370676,1376.4464093666188 -8.287870676997107,39.38844576440401,1397.1743586581194 -8.28785815770857,39.388431393722875,1410.1069191969511 -8.287845657453879,39.388417046379224,1422.9922808089923 -8.287833176038017,39.38840272214351,1435.8306193348917 -8.287820713263411,39.3883884207838,1448.6221065357024 -8.287805230150333,39.38837065557147,1464.4748915708174 -8.287802912413717,39.3883679964143,1466.8442636269156 -8.287800595314053,39.38836533803944,1469.2120210335067 -8.287798278851195,39.3883626804468,1471.5781648187856 -8.287793647834228,39.388357367606396,1476.3056173186874 -8.287789019360128,39.388352057890344,1481.026628937053 -8.287784393425529,39.38834675129519,1485.7412081295654 -8.287770102882453,39.388330359358406,1500.281301088993 -8.287755836417887,39.38831399704284,1514.7601983796703 -8.28774411130603,39.38830055093271,1526.632347857046 -8.287732402203071,39.38828712454507,1538.4633522400159 -8.287720708951312,39.388273717695256,1550.2533476386234 -8.287709031406282,39.38826033021196,1562.0024694813703 -8.287694516720084,39.388243692040305,1576.5711300357384 -8.287680026038275,39.38822708348884,1591.0769232373646 -8.287665559231698,39.38821050441762,1605.520107299827 -8.287651116159468,39.388193954678464,1619.9009373533013 -8.287637237455302,39.3881780536541,1633.6833253421937 -8.287623380356488,39.38816217938075,1647.4084055829967 -8.287609544628577,39.388146331586334,1661.0763954068673 -8.287595730044474,39.388130510001474,1674.6875099441977 -8.287580066034234,39.38811257270925,1690.0771371876983 -8.287564428831637,39.38809466867136,1705.3939907328008 -8.287548818263595,39.388076797693444,1720.6383793717712 -8.287533234163114,39.38805895959711,1735.810608531308 -8.287515454157681,39.38803861118594,1753.064024107816 -8.287502591989323,39.38802389315804,1765.5074438071588 -8.287489747445962,39.38800919709873,1777.9019723719966 -8.28747692034608,39.387994522791,1790.2477731321944 -8.287464110528195,39.38797987003417,1802.5450082924524 -8.287448730396894,39.387962279516586,1817.267433719523 -8.287433374923422,39.38794471975396,1831.9201551021454 -8.287418043979075,39.387927190608714,1846.5034499947565 -8.287402737410579,39.387909691927874,1861.017592344082 -8.287387455005078,39.38789222349027,1875.4628514966557 -8.287372196490686,39.38787478499375,1889.8394920559163 -8.287356961569172,39.38785737608531,1904.1477746340977 -8.287341749964437,39.38783999642029,1918.3879571600787 -8.28732656146031,39.38782264571825,1932.5602960538245 -8.287311395906576,39.3878053237858,1946.6650466704048 -8.287296253191991,39.38778803049609,1960.702462815154 -8.287281133197352,39.38777076573488,1974.6727955980105 -8.28726603575409,39.387753529341474,1988.5762922457166 -8.287250960629638,39.38773632107425,2002.4131954872269 -8.28723590754633,39.38771914061785,2016.1837438712166 -8.287220876221603,39.387701987622236,2029.888172747901 -8.287204032337547,39.387682769303346,2045.1900770548443 -8.287191266649458,39.38766820621749,2056.748247864247 -8.287178516385524,39.38765366256675,2068.258951484947 -8.287165781493409,39.387639138295484,2079.7223290495244 -8.287153061908159,39.387624633346746,2091.138519394479 -8.2871384503353,39.3876079731823,2104.2115213101943 -8.287123858687158,39.387591338261544,2117.222477531481 -8.287109286731376,39.387574728322654,2130.171588490762 -8.287094734234714,39.3875581430807,2143.0590521829254 -8.287076017688058,39.3875368157934,2159.568721378426 -8.287062683331957,39.387521623937474,2171.2857966784863 -8.287049365002584,39.38750645239548,2182.9513357977394 -8.287036062632465,39.38749130108662,2194.565488952416 -8.287022776147726,39.38747616993698,2206.1284050691993 -8.287006146650464,39.38745723458594,2220.5479276139467 -8.286989541694997,39.387438330483,2234.887486107763 -8.286972960985828,39.38741945729747,2249.147360534918 -8.286956404219092,39.3874006146616,2263.327826816582 -8.286939871121616,39.38738180222192,2277.4291580527233 -8.286923361477836,39.387363019686966,2291.4516255931767 -8.286906875128748,39.38734426684547,2305.395499414119 -8.28688795772095,39.38732275266985,2321.3229953043465 -8.286869070688311,39.38730127728503,2337.1474532175703 -8.28686614423342,39.38729795016319,2339.592441550913 -8.286863218500335,39.38729462396643,2342.0349625105473 -8.286860293486908,39.38729129869213,2344.4750175245267 -8.286857369191313,39.38728797433809,2346.912608024308 -8.286851522744627,39.387281328380176,2351.780403102269 -8.286845679147481,39.387274686077326,2356.6383585099425 -8.286839838387676,39.38726804741458,2361.486484761586 -8.28682644434042,39.38725282517578,2372.5759674746396 -8.28681306504275,39.38723762185976,2383.6138659136573 -8.286799700369153,39.38722243729996,2394.600322317723 -8.286786350224334,39.387207271367004,2405.5354727911867 -8.286765269028965,39.38718332716311,2422.7229045132276 -8.286744223682051,39.38715942893877,2439.782905660371 -8.286728303324184,39.38714135396325,2452.623114107619 -8.28671240318701,39.38712330500777,2465.3906979050325 -8.286696523036392,39.38710528181286,2478.085875219867 -8.286680662621077,39.38708728407505,2490.7088603314955 -8.28666482171475,39.38706931150021,2503.2598649277115 -8.286646853972654,39.38704892951258,2517.427551992886 -8.286628911011132,39.38702857945994,2531.502969805053 -8.286610992665537,39.38700826114258,2545.486423219109 -8.28659309874775,39.38698797435104,2559.3782129732917 -8.286572887019243,39.38696506442717,2574.981926639791 -8.286568919850007,39.38696056823348,2578.033713417742 -8.286564953855976,39.386956073561784,2581.0810077563706 -8.286560989033772,39.38695158040816,2584.1238125348486 -8.28655306288722,39.38694259863368,2590.195969711945 -8.286545141387565,39.38693362288191,2596.2502069495577 -8.286537224511278,39.38692465312332,2602.286548083661 -8.28651842564871,39.386903357171555,2616.562393687754 -8.286499652525618,39.3868820945872,2630.737587646425 -8.286480904894919,39.386860865049094,2644.8124731672197 -8.286462182549226,39.38683966829355,2658.7873760927555 -8.286443485283298,39.38681850407227,2672.6626143734493 -8.286424812866777,39.38679737211688,2686.4385013095816 -8.286406165034345,39.38677627212026,2700.115345854773 -8.28638722430988,39.38675484494637,2713.9240197213785 -8.286368308380132,39.386733450066416,2727.6309112325384 -8.28634941697985,39.386712087148844,2741.2363086564474 -8.286324618847134,39.38668405111522,2758.9682966225055 -8.28629986217534,39.38665606913382,2776.5260322244512 -8.286275146426151,39.38662814052111,2793.9102595992135 -8.286250471109614,39.38660026466925,2811.121658575023 -8.286222115990281,39.38656824044327,2830.7210980071377 -8.28620072020606,39.38654408224912,2845.383276013867 -8.286179353741863,39.38651996244318,2859.9161049789973 -8.286158016201083,39.386495880529395,2874.319994056395 -8.286136707227918,39.38647183605005,2888.5953479710774 -8.286117564377356,39.3864502401545,2901.326297666346 -8.286098444163816,39.38642867392567,2913.953896973949 -8.28607934640059,39.3864071371254,2926.4784080865484 -8.286050352461176,39.38637444811047,2945.323873515577 -8.286026811353969,39.38634791377816,2960.4748048358965 -8.286003303257282,39.38632142282585,2975.469704441285 -8.285979827681556,39.386294974653616,2990.3090771047146 -8.28595638415047,39.38626856866618,3004.993410252936 -8.285927199933974,39.38623570499486,3023.0848217150115 -8.285922359363461,39.38623025503848,3026.065233567327 -8.285917520122657,39.38622480683337,3029.0390533840928 -8.285912682209126,39.386219360376266,3032.006285018804 -8.285903010348793,39.386208472686306,3037.921005479374 -8.285893343761472,39.38619759194148,3043.8094242219177 -8.285883682423828,39.38618671811201,3049.671572877682 -8.28585229871859,39.38615140269506,3068.55464351048 -8.285820969371198,39.38611615896451,3087.1612807370147 -8.28579616954375,39.38608826798188,3101.716851785908 -8.285771402728757,39.386060420624986,3116.0999116973917 -8.285746668419364,39.386032616254774,3130.3109732065577 -8.285721966137237,39.38600485425334,3144.3505418511695 -8.285692795553244,39.38597207860036,3160.732207074527 -8.28566366849803,39.385939360535176,3176.8755689316226 -8.285634584348587,39.3859066992426,3192.781425346509 -8.28560554246682,39.38587409390617,3208.4505567504843 -8.285571762265517,39.38583617945689,3226.4069348335333 -8.285544755538634,39.385805875605016,3240.55393368505 -8.285517783662645,39.38577561801784,3254.4969766925424 -8.285490846072927,39.385745405970496,3268.2366299094256 -8.285463942260405,39.38571523879429,3281.773444397141 -8.28544013975674,39.385688554864,3293.594896523482 -8.285420464453544,39.385666501807776,3303.25657736669 -8.285400806697265,39.385644472061124,3312.810056183878 -8.285381166324616,39.38562246541299,3322.255532830763 -8.285354908772504,39.38559304997543,3334.7276079769786 -8.285328681658177,39.38556367502409,3347.0070391435247 -8.285302484502116,39.38553433995496,3359.0943313567154 -8.285276316847122,39.38550504419098,3370.989941051203 -8.285238310780537,39.38546250585798,3387.949626704593 -8.285207189240108,39.38542768267464,3401.556329742464 -8.285182753829945,39.38540034690454,3412.062121509987 -8.285158342742175,39.38537304357931,3422.4011521937928 -8.28513395568498,39.385345772314366,3432.5737633172184 -8.285102452626523,39.38531055107713,3445.483043241406 -8.285070988732013,39.385275382122956,3458.115192117133 -8.285039563337643,39.385240264599496,3470.4709619954433 -8.285008175822327,39.38520519771676,3482.5510239833056 -8.284963128124678,39.385154883732824,3499.4318929071064 -8.284918155596792,39.38510467042481,3515.7463895157766 -8.28488230676648,39.385064655846996,3528.3649120417404 -8.284846503937487,39.38502470295728,3540.624503071112 -8.284810746361451,39.38498481077836,3552.526040404258 -8.284775033349336,39.38494497841319,3564.0703764721757 -8.284739364234392,39.38490520501049,3575.2583362447026 -8.284695399000574,39.38485619455177,3588.576927858133 -8.284651498338926,39.38480727103118,3601.3552905659762 -8.284607661010787,39.3847584329062,3613.5948356589765 -8.284563885843317,39.38470967871831,3625.296930096678 -8.284527481171255,39.38466914447595,3634.6320573711278 -8.284491118281222,39.38462866680889,3643.596192599283 -8.284454796660436,39.38458824509678,3652.1900633389973 -8.284418515841557,39.3845478787835,3660.4143826102463 -8.284370301687076,39.38449425082474,3670.7861525503163 -8.284322158063674,39.38444071899752,3680.5064444691643 -8.284274084121545,39.38438728238346,3689.5768262565125 -8.284226079040515,39.38433394011949,3697.9988337325135 -8.284178141994127,39.38428069133762,3705.7739785243357 -8.28413027213951,39.38422753513658,3712.9037541548946 -8.284082468598417,39.384174470555365,3719.3896428168273 -8.284034730415069,39.38412149651277,3725.2331223430497 -8.283987056479427,39.38406861169337,3730.435670383241 -8.283947850112579,39.38402513332244,3734.239250749392 -8.283908685431912,39.38398171306898,3737.6101346317823 -8.283869561255699,39.38393834936247,3740.549135984081 -8.283830476125338,39.38389504022265,3743.057052729935 -8.283791428258006,39.383851783187026,3745.1346550801336 -8.283752415504603,39.38380857524654,3746.7826685054292 -8.28371343531934,39.383765412799846,3748.001749502203 -8.28368183229796,39.38373042531468,3748.6760245908467 -8.283650247012027,39.38369546248726,3749.068566273142 -8.283622019429552,39.38366422016738,3749.1810995947108 -8.283618677577598,39.383660521613514,3749.1795213201954 -8.283602647935822,39.38364278157969,3749.128060444936 -8.283601426637677,39.38364143000659,3749.1209501950593 -8.283600205358649,39.383640078459734,3749.113418173821 -8.283597762838648,39.38363737541812,3749.0975105777416 -8.28359532039423,39.38363467248018,3749.079915852371 -8.283592878024507,39.38363196964464,3749.06063395074 -8.283571265925639,39.38360805354613,3748.816437188574 -8.283549659024198,39.38358414453037,3748.4400318668454 -8.283528056793244,39.38356024184404,3747.9313297808303 -8.283506458788219,39.38353634485623,3747.2902056845774 -8.283475254262166,39.3835018204144,3746.129425163795 -8.283444057518656,39.38346730647316,3744.6911181078767 -8.283412869090508,39.38343280391115,3742.974482613511 -8.28338169063168,39.38339831527124,3740.978578347271 -8.283350525077438,39.38336384499806,3738.70236604091 -8.283327424338626,39.38333829834342,3736.8327387067206 -8.283304335198475,39.383312768558234,3734.8079317393863 -8.283281260143722,39.38328725937174,3732.6275367957287 -8.283275012450373,39.38328035362723,3732.010091710227 -8.283271676157874,39.38327667168247,3731.6745219748555 -8.283268354550614,39.38327301154926,3731.3376704862085 -8.283261740466806,39.3832657345494,3730.661409250588 -8.283255184167212,39.38325854337565,3729.980042042968 -8.283248684714161,39.383251436636236,3729.2935903582998 -8.283212059083187,39.38321181164803,3725.2122214433716 -8.283177155170678,39.38317474413075,3720.9653587463404 -8.283143836890288,39.383140032093976,3716.558444300775 -8.283111986014909,39.38310750003637,3711.997549401193 -8.283066592731924,39.38306231536362,3704.8579057520583 -8.283023989442526,39.38302127600304,3697.4081902805206 -8.282983919392448,39.38298400070528,3689.67335222522 -8.282946157325586,39.38295015485579,3681.678622657687 -8.282910505474414,39.382919444533734,3673.449134375319 -8.282855995312264,39.382875066473325,3659.4674383127685 -8.282806019329016,39.38283742412728,3645.0176327192517 -8.282759966372387,39.382805607336344,3630.1894326756324 -8.282717308202567,39.38277882871489,3615.060679005941 -8.282677580222463,39.3827563949504,3599.696616060477 -8.282640375378811,39.38273769777911,3584.1506581261497 -8.282594104250478,39.38271768304899,3563.2201490729667 -8.282550985134542,39.38270231398754,3542.1216443508656 -8.282510437341381,39.38269071782606,3520.912336965188 -8.28247198750265,39.38268218167692,3499.633240773505 -8.282435251819752,39.38267612580711,3478.313288273922 -8.282398950026593,39.38267199245093,3456.3757933388206 -8.282363862442171,39.38266957327877,3434.4316651739723 -8.28232977355215,39.38266853875668,3412.491255881194 -8.282296511837167,39.38266862509606,3390.561566754988 -8.28226394104168,39.38266962126335,3368.6473043431 -8.282224247946816,39.38267187913363,3341.4263057324733 -8.282185296717612,39.382675031530844,3314.2378499120787 -8.282146966496294,39.382678885179224,3287.084282867441 -8.282109168580948,39.382683295482124,3259.9668315280683 -8.282073308360104,39.382687951856305,3233.9592284546566 -8.28203783355939,39.382692944427006,3207.9860378652406 -8.282002710887324,39.3826982149856,3182.047447105954 -8.281967915296482,39.382703718355614,3156.143518514827 -8.281898950584553,39.38271534158987,3104.223755942397 -8.28183112441362,39.3827275579554,3052.443417807539 -8.281764377348527,39.38274024142825,3000.801652872066 -8.281698670421507,39.38275330539884,2949.2975513990286 -8.28163189807755,39.38276711683119,2896.270774592461 -8.281566191472038,39.38278121387314,2843.3891573448227 -8.281501546691624,39.382795556285245,2790.6517938578036 -8.281408906047899,39.38281692271592,2713.7598463107 -8.281318589154584,39.38283870423188,2637.1722563738367 -8.281230639641846,39.38286086735433,2560.886425688379 -8.281195763755964,39.382869936552396,2530.1291130469835 -8.281161287586505,39.382879073338756,2499.420754055571 -8.28112721451196,39.38288827867476,2468.761112447484 -8.281094860596461,39.38289719018279,2439.349398924496 -8.281062885769376,39.3829061705701,2409.982387043579 -8.281031293823538,39.38291522307325,2380.6599693075086 -8.280933493161827,39.38294450326031,2287.7812960028546 -8.280909662936104,39.38295195058846,2264.631425238266 -8.280886085084344,39.38295945225368,2241.5093276378375 -8.28086275854169,39.38296700712005,2218.4149320702595 -8.28083391761972,39.38297653737524,2189.5485811408016 -8.28080547204331,39.38298614931565,2160.72540499141 -8.280777422060424,39.382995840939074,2131.945276867988 -8.280749797426745,39.38300559866173,2103.239723465414 -8.280722565838632,39.383015429827175,2074.576855331735 -8.28069572583157,39.38302533091038,2045.9565289451052 -8.280644015352047,39.383045017431634,1989.724519192124 -8.28059381280864,39.38306494256507,1933.6556725802618 -8.280545117913817,39.3830850949721,1877.7487477580087 -8.280521102952914,39.38309535609248,1849.5791452575356 -8.28049747556763,39.38310567590109,1821.450341996213 -8.280474238725663,39.38311605817937,1793.362134064699 -8.280451424771808,39.38312649340142,1765.3508299631344 -8.280429006213948,39.383137000344206,1737.3796523534834 -8.280406986229496,39.38314758567849,1709.4484203118716 -8.280377170107851,39.38316238431596,1670.851060408347 -8.280348133498128,39.383177375646696,1632.3294162281534 -8.280319886274718,39.38319258939138,1593.8830350604164 -8.280278942614528,39.38321594454905,1536.2448843015054 -8.280239833125936,39.38323996534508,1478.7745069676691 -8.280202581028343,39.38326472174721,1421.4705464087347 -8.280182977905637,39.38327859254972,1390.1700241733558 -8.280163933328357,39.38329267877825,1358.9188430758682 -8.28014544716477,39.383306971524384,1327.7167570828738 -8.28012987069262,39.38331951890576,1300.703590001548 -8.280114712891056,39.383332196423886,1273.7269725089348 -8.280099973574032,39.38334498877561,1246.7867471215734 -8.280077281532197,39.3833656316859,1203.7954532958254 -8.280055663544573,39.383386454016744,1160.896128636621 -8.280035128437435,39.38340738167628,1118.08817748757 -8.280024790061509,39.38341838364518,1095.662553887401 -8.28001475649485,39.38342938239651,1073.2618459037315 -8.280005032059035,39.38344036898212,1050.8860120517802 -8.279995620934846,39.38345133506686,1028.5349919937537 -8.279977757495693,39.38347317912611,983.9071646654965 -8.279961206724973,39.38349487151702,939.3779886556422 -8.279946011939597,39.38351638868729,894.9472089307524 -8.279932215213242,39.383537720663526,850.6146260793465 -8.279924786622514,39.38355015032659,824.6438658973932 -8.279917862403662,39.383562509192096,798.7068494327727 -8.279911452939114,39.38357478817616,772.8035657539931 -8.279905587075985,39.38358693795768,747.011814717993 -8.279900258540314,39.38359897851597,721.253561725733 -8.27989548313634,39.38361088834613,695.5287890097366 -8.279890395019523,39.38362531651901,663.9394130103486 -8.279886200045652,39.383639457772425,632.400587171736 -8.279883805431615,39.38364917341498,610.3190966967552 -8.279883662400039,39.38364981748411,608.8412468782797 -8.279883521428534,39.38365046072181,607.3635080938167 -8.279880677341975,39.38366601416302,571.0572249901685 -8.279880225797893,39.38366931061053,563.2061220532248 -8.279880224323675,39.383669322154645,563.1786548486198 -8.279880222860141,39.38366933369412,563.1513312948944 -8.279880219954222,39.383669356763875,563.096968388865 -8.27988021709017,39.383669379815416,563.0431677309444 -8.279880214267134,39.38366940284912,562.9899172228967 -8.279880200030641,39.38366952401323,562.7178207343303 -8.279880186801716,39.383669644738504,562.4591348103498 -8.279880174487309,39.38366976506506,562.2125408308123 -8.27988016300647,39.38366988502786,561.9768937602164 -8.279880147015767,39.38367006649903,561.637905004783 -8.279880132577368,39.383670247291214,561.3189452566539 -8.279880119519405,39.383670427478734,561.0175998980429 -8.279880107696751,39.383670607124415,560.7318352629676 -8.279880096987869,39.38367078628088,560.459953253355 -8.279880081187978,39.38367108704643,560.0294987128301 -8.279880067853187,39.38367138672524,559.6287735447951 -8.279880056658435,39.38367168545841,559.253285411961 -8.279880047346591,39.383671983357665,558.8995009082837 -8.279880039706276,39.383672280514965,558.5645292068945 -8.279880033561923,39.38367257700672,558.2459811508556 -8.27988002634487,39.38367306230204,557.7537261908496 -8.279880022245193,39.38367354620234,557.293422002513 -8.2798800208546,39.38367402888595,556.8596364165721 -8.27988002184922,39.383674510494444,556.4481068319402 -8.279880024966602,39.38367499114267,556.0554173026528 -8.279880029991562,39.383675470924885,555.6788021657784 -8.279880042709514,39.38367630075867,555.0575829104687 -8.279880059887956,39.383677128547745,554.468734897047 -8.279880080959222,39.38367795454127,553.9054048605011 -8.27988010547921,39.383678778934225,553.3624096402491 -8.279880133091075,39.38367960188332,552.8357301980725 -8.279880163505025,39.38368042351582,552.3222412371902 -8.279880215173261,39.383681683987625,551.5532331523252 -8.279880272199243,39.383682941902556,550.8028455849544 -8.279880334037117,39.38368419749964,550.0662559677479 -8.279880400246972,39.38368545097121,549.339910844918 -8.27988047047054,39.383686702473646,548.6211907174287 -8.27988058023932,39.383688536611245,547.5758914654892 -8.27988069729023,39.38369036710032,546.5387929357681 -8.279880821037786,39.38369219419494,545.5070650599523 -8.27988095101748,39.38369401809487,544.478876336815 -8.27988108684004,39.383695838961124,543.4530604550738 -8.27988127275609,39.38369821623367,542.1136404888845 -8.279881467482161,39.38370058877626,540.775836141999 -8.279881670561737,39.38370295676602,539.4389932327725 -8.27988188165608,39.383705320334734,538.1027753943871 -8.279882114468268,39.38370782745548,536.6831631248346 -8.279882355811413,39.38371032978432,535.2638638371562 -8.279882605501049,39.38371282739255,533.8447742651969 -8.279882863861124,39.38371532472267,532.4233394089745 -8.27988313035728,39.383717817408176,531.0020376183471 -8.279883404913313,39.38372030547849,529.5808566812603 -8.2798836874438,39.38372278871199,528.1599281065834 -8.279883977932283,39.38372526737005,526.7391072789496 -8.279885877588866,39.3837400063488,518.2385162167191 -8.279888045994381,39.3837545855469,509.74156826914094 -8.279890474665788,39.38376900693117,501.248231580546 -8.279894921072101,39.383792022182,487.5098456265119 -8.279899979535687,39.38381464279223,473.78084389658267 -8.279905597561523,39.38383688541676,460.06116481004454 -8.279911730964862,39.383858764668105,446.35075167299135 -8.279918332212983,39.38388029664162,432.64953767311846 -8.279925355170123,39.383901496671115,418.95745147826483 -8.279934521022431,39.38392711344345,402.14073878864724 -8.279944191107484,39.38395227094781,385.3375775276304 -8.279954283062573,39.38397699335469,368.5477957700358 -8.279964735596193,39.384001296702664,351.7712421108749 -8.279977384135586,39.384029274359605,332.1164057876092 -8.27999037930777,39.38405670527292,312.47926235044764 -8.280003654392491,39.38408359888715,292.85952341522113 -8.280017157184929,39.38410995968329,273.256912674009 -8.2800347946712,39.38414307727846,248.06706071201992 -8.280052667939378,39.384175280879774,222.90457938536812 -8.28007072066538,39.384206519223575,197.76899896904197 -8.280088905414592,39.38423672173113,172.6599144239104 -8.280098116417216,39.38425154426122,160.00000335029245</coordinates>
            </LineString>
        </Placemark>
    </Document>
</kml>
