<?xml version="1.0" encoding="UTF-8"?>
<kml xmlns="http://www.opengis.net/kml/2.2" xmlns:gx="http://www.google.com/kml/ext/2.2">
    <Document id="1">
        <Style id="4">
            <LineStyle id="5">
                <color>641400F0</color>
                <colorMode>normal</colorMode>
            </LineStyle>
            <PolyStyle id="6">
                <color>641400F0</color>
                <colorMode>normal</colorMode>
                <fill>1</fill>
                <outline>1</outline>
            </PolyStyle>
        </Style>
        <open>1</open>
        <Placemark id="3">
            <name>Rocket Trajectory - Powered by RocketPy</name>
            <styleUrl>#4</styleUrl>
            <LineString id="2">
                <extrude>1</extrude>
                <altitudeMode>absolute</altitudeMode>
                <coordinates>12.027111000000001,44.290583000000005,18.0 12.027111000000001,44.290583000000005,18.0 12.027111000000001,44.290583000000005,18.0 12.027111000000861,44.29058299999831,18.000001903262486 12.027111000003776,44.29058299999258,18.000008354878354 12.027111000011944,44.29058299997651,18.00002642983042 12.027111000028967,44.29058299994303,18.000064105728743 12.027111000092805,44.29058299981749,18.000205382047714 12.02711100017994,44.290582999646126,18.000398208967813 12.027111000302831,44.290582999404435,18.000670173301998 12.02711100046157,44.290582999092244,18.001021471443043 12.027111000886924,44.290582998255715,18.00196278935973 12.027111001456749,44.29058299713507,18.00322383162409 12.02711100217174,44.29058299572891,18.004806133345493 12.027111003032607,44.29058299403588,18.00671125923235 12.027111019877141,44.290582960908324,18.043988781117605 12.027111052077542,44.290582897580926,18.11524935151144 12.02711110032371,44.290582802696875,18.22201974657797 12.027111475266665,44.29058206530968,19.05178112704261 12.027111725110524,44.2905815739505,19.60469401610135 12.027111730377891,44.29058156357569,19.61634704597355 12.027111735667855,44.29058155314079,19.628046285839474 12.02711174629298,44.29058153215063,19.651537274367527 12.027111757008525,44.29058151091969,19.67521345813012 12.027111767814544,44.29058148944763,19.699075192441697 12.027111880902464,44.29058126140601,19.94797383574901 12.027112003396367,44.29058100896255,20.215817238132743 12.02711213601752,44.29058073192968,20.502953145719328 12.027112279939244,44.29058043020086,20.809726126020053 12.027112480876836,44.290580013096786,21.226473893884965 12.027112707186738,44.290579556604335,21.6758667640043 12.027112964903697,44.290579061117384,22.158563444598304 12.027113261605104,44.29057852726588,22.675202106390977 12.027113535425517,44.29057806941682,23.11694612312506 12.027113846135704,44.29057758774008,23.581466615019934 12.02711420002482,44.29057708288633,24.06905497855391 12.027114604062483,44.290576555588935,24.579984820560092 12.027115286432362,44.29057576170104,25.354082564800358 12.02711611230384,44.29057492587939,26.177386764244993 12.027117108301074,44.290574050833555,27.050461663450704 12.027118302433696,44.29057313927105,27.973767709666756 12.02711972330326,44.2905721937347,28.9476670715382 12.027120652925078,44.290571636162,29.530029072204687 12.027121671840666,44.290571068455044,30.129220961285274 12.027122784977768,44.2905704908829,30.74528542265556 12.027123996958851,44.290569903631166,31.378265070893587 12.02712447813062,44.29056968080653,31.620147647549818 12.027124974029626,44.29056945663395,31.864420765250163 12.027125484855189,44.2905692311124,32.11108721534186 12.027126738948295,44.29056869831956,32.697410801669555 12.027128077980043,44.29056815803784,33.29688812087799 12.027129503770379,44.29056761010922,33.909568531192015 12.027131017830081,44.290567054305846,34.535510711758896 12.027133163066685,44.29056630479962,35.385911579097304 12.027135466947627,44.290565540040674,36.25993154665973 12.027137929791992,44.29056475895288,37.157792962874645 12.027140550719642,44.29056396029275,38.07975011773023 12.027143327715848,44.29056314268419,39.02608571210285 12.027144148630805,44.29056290562088,39.300728561863075 12.027144981937699,44.290562666859806,39.577389915299975 12.027145827548102,44.29056242636606,39.8560772309316 12.02714668536904,44.2905621841047,40.13679803260346 12.027147746870275,44.290561886502196,40.481578135953384 12.027148826170604,44.29056158616175,40.82940180559146 12.027149923081463,44.29056128302176,41.18028284334972 12.02715103740967,44.29056097702181,41.53423503410921 12.027152817247533,44.29056049186553,42.09481333927699 12.027154638574357,44.29055999933252,42.66301131173643 12.027156500642153,44.29055949921951,43.23888004690009 12.027156687094172,44.290559449310294,43.29628532395189 12.027156873937344,44.29055939932485,43.353766250106645 12.027156899835166,44.29055939239898,43.361729589879516 12.027156910140683,44.290559389643064,43.36489830569579 12.027156911440786,44.290559389295396,43.365298056624376 12.02715691274091,44.290559388947706,43.36569781120772 12.027156912961228,44.29055938888879,43.36576555329215 12.027156913181546,44.29055938882987,43.36583329548153 12.027156913622186,44.29055938871204,43.36596878007019 12.027156914062825,44.290559388594204,43.36610426507866 12.027156914503468,44.29055938847637,43.366239750506935 12.027156918909956,44.290559387297996,43.367594614159906 12.027156923316491,44.29055938611961,43.368949478636104 12.027156927723022,44.29055938494122,43.370304330216435 12.02715697178789,44.29055937315731,43.383852136771324 12.027157015851992,44.29055936137326,43.39739865382921 12.02715705991532,44.29055934958911,43.410943881472576 12.027157500505472,44.29055923174106,43.546325257645314 12.02715794101514,44.29055911388093,43.68157778197175 12.027158381441465,44.29055899600843,43.81670153334904 12.027158821781645,44.29055887812324,43.95169658901315 12.02716194880675,44.29055803986205,44.90747745054183 12.027165070491694,44.29055720087611,45.85678446508672 12.027168186186048,44.29055636114116,46.79963658514997 12.027171295470072,44.29055552067866,47.7360478933576 12.027174398160243,44.290554679551725,48.666027815656236 12.027175480331504,44.290554385619544,48.98934136602589 12.02717656171025,44.290554091623186,49.311871034541134 12.027177642307677,44.290553797568194,49.63361685630841 12.027178722137918,44.29055350346038,49.95457880677522 12.027179828738221,44.29055320180182,50.28291454418051 12.027180934570975,44.29055290010121,50.61042565777544 12.027182039659827,44.29055259836576,50.937111936479674 12.027184257972028,44.290551992009156,51.5910298584475 12.027186473628202,44.29055138560484,52.2416136414397 12.02718868689216,44.29055077921495,52.88885955028647 12.027190898053306,44.2905501729028,53.53276303260533 12.027192184513268,44.29054981997631,53.906093689850955 12.02719347042451,44.29054946710901,54.278288571389055 12.02719475584845,44.29054911431232,54.6493465013064 12.027196040846368,44.29054876159722,55.019266258313515 12.027197325478943,44.2905484089742,55.388046588547816 12.027198609805824,44.29054805645314,55.75568621693096 12.027199893885252,44.29054770404328,56.12218385886418 12.027201682283827,44.29054721334244,56.63080434871621 12.02720347045687,44.290546722894724,57.13720302790428 12.027205258540329,44.29054623271807,57.64137661284686 12.027207046659232,44.290545742827334,58.14332200740753 12.027210734000118,44.29054473371523,59.17119289487551 12.02721442277073,44.29054372592592,60.18955925276572 12.02721811352705,44.29054271946323,61.19840767398111 12.027221806568377,44.29054171427935,62.197732945124955 12.027225501943285,44.29054071028071,63.187538397874185 12.02722656517452,44.29054042172421,63.470453194423065 12.027227628577345,44.29054013325148,63.75258183593038 12.027228692142875,44.29053984485875,64.03392476346272 12.027229755860946,44.29053955654211,64.3144824650319 12.027232755384434,44.290538744101084,65.10120119675564 12.027235755727991,44.29053793213762,65.88169697571506 12.027238756538916,44.29053712055375,66.65598516880691 12.02724175742404,44.29053630925149,67.42408247559285 12.027245093861199,44.29053540733242,68.27092689453458 12.027248429283063,44.290534505523276,69.11016234169844 12.027251763107387,44.290533603715794,69.94181248585953 12.027255094781223,44.29053270181793,70.76589977060962 12.027256408691892,44.29053234590292,71.08899371331265 12.027257722160035,44.290531989958495,71.41091458287322 12.027259035159037,44.2905316339815,71.73166350464685 12.027261849742128,44.29053087032097,72.4156938805065 12.027264661832795,44.2905301064783,73.09434728713892 12.027267471264185,44.29052934244485,73.76763185788167 12.02727027790869,44.290528578220815,74.4355546652102 12.027274855226386,44.290527329790166,75.51481984181162 12.027279424814335,44.29052608096304,76.57981799413729 12.027283986874602,44.290524831870464,77.63055836926169 12.027288541860528,44.29052358267598,78.66704256986262 12.02729309042442,44.29052233356305,79.68926549888641 12.027300299675195,44.290520351334315,81.28264424197239 12.027307498263013,44.29051837051997,82.8399957519489 12.027310332860116,44.29051759046043,83.44379384551917 12.027313166529698,44.29051681074645,84.04198146286987 12.027315999447264,44.29051603140287,84.63455453104328 12.027318831771602,44.29051525244964,85.22150939086563 12.0273216636409,44.290514473901446,85.80284295572807 12.027325062443186,44.290513539916645,86.49322137348395 12.027328460916246,44.29051260653523,87.17549418891252 12.027331859174511,44.290511673753876,87.84966032503858 12.027335257286838,44.290510741559814,88.51572050119084 12.027341764510588,44.29050895791622,89.76864591104646 12.027348271056555,44.29050717612836,90.99188847797777 12.027354776282044,44.290505395915815,92.18550294845083 12.027361279244785,44.29050361696883,93.34955873932068 12.027367778831191,44.29050183897897,94.48413406996025 12.027374273875013,44.29050006166362,95.58931050180212 12.027380763263514,44.290498284784896,96.66516802616201 12.027387246022048,44.290496508161226,97.71178127621211 12.027393721372745,44.29049473167232,98.7292168247003 12.027400188766691,44.290492955258564,99.71753147075117 12.027406647893791,44.2904911789158,100.67677163222955 12.027408595398391,44.29049064289513,100.96053290271269 12.02741054214299,44.29049010688652,101.24165073344423 12.027412488130715,44.29048957089216,101.52012586172422 12.027414433366218,44.2904890349145,101.79595894821686 12.027416856155982,44.29048836709545,102.13596056505932 12.027419277802396,44.290487699312216,102.47186200670293 12.027421698322756,44.29048703157079,102.80366410544917 12.027426510128477,44.29048570339741,103.45152355763378 12.027431317738934,44.290484375468175,104.08316777718807 12.027436121356002,44.29048304783667,104.69859876538791 12.02744092119861,44.290481720557494,105.29781731254522 12.027443242156803,44.29048107854036,105.58190983451604 12.027445562309412,44.29048043662382,105.86220723321921 12.027447881681418,44.290479794813365,106.13870940126833 12.027454811147004,44.29047787676356,106.9426946888887 12.027460447660921,44.290476316161545,107.57214582939682 12.02746608039958,44.290474756358215,108.17911409589274 12.027471709622159,44.29047319739823,108.76359951233735 12.027477335543699,44.29047163931336,109.32560384708492 12.027487707012282,44.29046876707247,110.30349151205358 12.027498068544658,44.29046589789599,111.20491483111205 12.027508420478373,44.290463031693996,112.02994501789743 12.027518762863524,44.290460168289485,112.77867782652996 12.027529095573675,44.29045730744594,113.45122854191496 12.027537535302757,44.29045497040017,113.94453651623127 12.027545968331482,44.290452634724765,114.38709184677163 12.02755439459206,44.290450300258954,114.77897060940884 12.027562814072345,44.290447966843885,115.12024808234038 12.027571226831105,44.29044563432511,115.41099681542998 12.027583959795306,44.290442101909,115.755370337556 12.02759667852216,44.29043857073005,115.98412751324165 12.027609384276335,44.29043504035531,116.09742449098202 12.027615504910639,44.29043333871245,116.1108256905393 12.027622078650197,44.29043151040968,116.095353029298 12.027634763404363,44.290427980598736,115.97792331765552 12.027647440207073,44.29042445074469,115.74504837940908 12.027660956808672,44.29042068493371,115.36911066319969 12.02767446607831,44.29041691935345,114.86117813688523 12.027687966583335,44.290413154673956,114.22074547986193 12.027701454670968,44.29040939198967,113.44722599658706 12.0277104008571,44.29040689544394,112.85980598193424 12.027719336814835,44.29040440091998,112.21328958128606 12.02772826019273,44.29040190892152,111.5075466871034 12.027737168682089,44.29039941991524,110.74248601208792 12.027746060280435,44.29039693427815,109.91806407962683 12.027755044263028,44.29039442126891,109.02287878907404 12.027764008867926,44.29039191199692,108.06692543006652 12.027772954571187,44.290389406269895,107.05034278433854 12.027781883008215,44.290386903649605,105.9733354838083 12.027790796925567,44.29038440346954,104.83617024609768 12.027799699987456,44.29038190488343,103.63916601055841 12.02780859642981,44.2903794069465,102.38267505442923 12.027817490600606,44.290376908720724,101.06705360393461 12.027826386422609,44.29037440939514,99.69262361328029 12.027830284522404,44.29037331407349,99.07210405087437 12.027836870809429,44.29037146329101,97.99858072888462 12.027842245632382,44.29036995287224,97.09924684696684 12.027847622595607,44.2903684418159,96.17864389140084 12.027853001311408,44.29036693023136,95.23675719210036 12.027858381097833,44.29036541828938,94.27355643150507 12.027863760991792,44.29036390621719,93.28899868783962 12.027867859312309,44.290362754236625,92.52448757039424 12.02787195637852,44.290361602475286,91.7475240913097 12.027876051533307,44.29036045107483,90.95808399275022 12.027880144097475,44.29035930017871,90.15614416250884 12.027884233395762,44.29035814992659,89.34168376068118 12.027888318785768,44.29035700044829,88.5146852710742 12.02789239968772,44.29035585185768,87.67513536873003 12.027896475613138,44.2903547042471,86.82302557761716 12.027901148214823,44.29035338806817,85.82930319496988 12.027905813434524,44.29035207331676,84.81902805035074 12.027909692027713,44.290350979734995,83.96525225596099 12.027913565578094,44.290349887099445,83.1000252180792 12.027917434336667,44.29034879534542,82.22336518438506 12.027921298681104,44.29034770438257,81.33529484068487 12.027925159103734,44.290346614097984,80.4358409634977 12.027929016191063,44.29034552436084,79.52503379942601 12.027932870596695,44.29034443502845,78.60290622381196 12.027936723010784,44.29034334595291,77.66949273327656 12.02794057412764,44.290342256988055,76.72482827312291 12.027946039160176,44.29034071132186,75.36479542146844 12.02795150456953,44.290339165271504,73.98225440542923 12.027956971587031,44.29033761860353,72.57727659295604 12.027961467156796,44.290336346702595,71.4056184562148 12.02796596429389,44.29033507432499,70.21884578591899 12.027970462710464,44.290333801551064,69.01695917578996 12.027974961815175,44.29033252852321,67.7999482704159 12.027979460746169,44.29033125543733,66.56779394748095 12.027983958427198,44.29032998252955,65.3204712603272 12.027988453646419,44.29032871005851,64.05795294456979 12.027992945152077,44.29032743828468,62.78021302870378 12.027997431756113,44.290326167448754,61.48723006260821 12.028002866708395,44.29032462725976,59.89814705771101 12.028007333066013,44.29032336086693,58.573223248452905 12.028011792271878,44.29032209582463,57.23308561183994 12.028016244344427,44.29032083210657,55.87775165393682 12.028019928437693,44.29031978585331,54.74315526306096 12.028023608298447,44.29031874034507,53.59816360497423 12.028027284458789,44.29031769546212,52.44280101616266 12.028030957548982,44.290316651066895,51.27709466816948 12.028034628253849,44.29031560701328,50.10107342843194 12.02803829726354,44.29031456315724,48.914766507694765 12.028042604362849,44.29031333746727,47.5086330399188 12.02804691089226,44.29031211169494,46.08839604384329 12.028051217474438,44.29031088572455,44.654088690897275 12.02805552440632,44.29030965951115,43.20573433156611 12.028059095908162,44.290308642581394,41.994127676548814 12.028062667393186,44.29030762556055,40.772873551617124 12.028066238488409,44.290306608535005,39.54196960764645 12.028069808693008,44.29030559161583,38.30141028112627 12.028073377414435,44.29030457493069,37.05118804025059 12.028076944012641,44.29030355861424,35.79129475239485 12.028080507848589,44.290302542797825,34.5217230212472 12.028084068333248,44.29030152759948,33.24246738383729 12.0280876249733,44.29030051311468,31.95352529608181 12.02809178884742,44.29029932488758,30.4302417481274 12.028095946658066,44.290298137773846,28.893658175122276 12.028100098446986,44.29029695174729,27.343791571050783 12.028103540173216,44.290295968089126,26.04730905559195 12.028106978354426,44.290294985035594,24.74170976547343 12.028109752297802,44.29029419162446,23.680841458405997 12.028112524497374,44.29029339848393,22.6140530699545 12.0281152952339,44.290292605554825,21.54135606401691 12.028118064782891,44.29029181278025,20.46276181087439 12.028120833398644,44.29029102010874,19.378281195792734 12.028124329630108,44.29029001891191,17.99999999963508</coordinates>
            </LineString>
        </Placemark>
    </Document>
</kml>
