<?xml version="1.0" encoding="UTF-8"?>
<kml xmlns="http://www.opengis.net/kml/2.2" xmlns:gx="http://www.google.com/kml/ext/2.2">
    <Document id="1">
        <Style id="4">
            <LineStyle id="5">
                <color>641400F0</color>
                <colorMode>normal</colorMode>
            </LineStyle>
            <PolyStyle id="6">
                <color>641400F0</color>
                <colorMode>normal</colorMode>
                <fill>1</fill>
                <outline>1</outline>
            </PolyStyle>
        </Style>
        <open>1</open>
        <Placemark id="3">
            <name>Rocket Trajectory - Powered by RocketPy</name>
            <styleUrl>#4</styleUrl>
            <LineString id="2">
                <extrude>1</extrude>
                <altitudeMode>absolute</altitudeMode>
                <coordinates>12.027111000000001,44.290583,18.0 12.027111000000001,44.290583,18.0 12.027111000000001,44.290583,18.0 12.027111000000861,44.29058299999831,18.000001903262486 12.027111000003776,44.29058299999258,18.000008354878354 12.027111000011944,44.29058299997651,18.00002642983042 12.027111000028967,44.29058299994303,18.000064105728743 12.027111000092805,44.29058299981748,18.000205382047714 12.02711100017994,44.290582999646126,18.000398208967813 12.027111000302831,44.290582999404435,18.000670173301998 12.02711100046157,44.290582999092244,18.001021471443043 12.027111000886924,44.290582998255715,18.00196278935973 12.027111001456749,44.29058299713507,18.00322383162409 12.02711100217174,44.29058299572891,18.004806133345493 12.027111003032607,44.29058299403588,18.00671125923235 12.027111019877141,44.290582960908324,18.0439887811176 12.027111052077542,44.29058289758092,18.11524935151143 12.02711110032371,44.29058280269687,18.222019746577956 12.027111475266665,44.29058206530968,19.051781126633067 12.027111725110524,44.2905815739505,19.60469401639256 12.027111730377891,44.29058156357569,19.616347044210176 12.027111735667853,44.29058155314078,19.62804628200499 12.027111746292977,44.29058153215064,19.651537266358062 12.027111757008518,44.29058151091971,19.6752134458862 12.027111767814537,44.29058148944764,19.699075175917393 12.027111880902433,44.29058126140607,19.94797377602815 12.027112003396311,44.29058100896265,20.21581713413513 12.027112136017442,44.29058073192983,20.502952989677453 12.027112279939132,44.290580430201075,20.809725911762456 12.02711248164725,44.29058001151632,21.22804037242178 12.027112708931847,44.29057955315878,21.679239008471622 12.027112967901747,44.29057905552796,22.163987604596823 12.027113266231359,44.29057851926277,22.68293107411872 12.027113540520437,44.29057806120924,23.12486091936481 12.02711385176718,44.29057757936175,23.589550343202824 12.027114206263374,44.29057707437153,24.077290035409575 12.027114610979561,44.29057654697215,24.588352878727967 12.02711529453832,44.2905757528966,25.362707207920696 12.027116121771446,44.29057491694625,26.18623907884098 12.027117119293068,44.29057404182851,27.059511018511756 12.027118315093064,44.29057313024717,27.982981925961486 12.02711973774298,44.29057218473976,28.957012661916217 12.027120665635504,44.290571628812756,29.537744055055764 12.027121682312904,44.29057106282067,30.135197623499945 12.027122792652467,44.29057048702913,30.749415620361344 12.02712400122943,44.29056990162124,31.3804402653104 12.027124472333005,44.29056968345065,31.61726932594855 12.027124957553012,44.29056946398782,31.856390114984748 12.027125457076753,44.29056924323185,32.09780524880777 12.02712671120961,44.29056870979624,32.68472599147861 12.027128050493715,44.290568168851635,33.284839369779824 12.02712947676556,44.2905676202407,33.89819480789907 12.027130991549878,44.29056706373594,34.52485107317506 12.027133130760609,44.29056631578393,35.37339627861211 12.02713542802952,44.29056555264841,36.24547237338781 12.027137883692893,44.290564773261906,37.14129998468015 12.027140496895528,44.29056397639025,38.061131499454504 12.027143265653951,44.29056316066696,39.00524759772442 12.02714408507179,44.2905629238893,39.2795540174042 12.027144916871691,44.290562685418784,39.55587569175282 12.027145760965778,44.2905624452206,39.83422005917209 12.027146617261591,44.290562203259896,40.11459462321005 12.027147658788945,44.29056191108984,40.453087933450746 12.027148717509164,44.2905616162823,40.79451753267958 12.027149793243936,44.29056131877877,41.13889650521874 12.027150885810501,44.29056101852183,41.48623792686331 12.02715281011298,44.290560493780006,42.09259303235411 12.027154783020437,44.290559960398255,42.707873683266804 12.027156803585875,44.29055941811964,43.33214458081919 12.027156822156183,44.29055941315223,43.33785661199782 12.027156840730347,44.29055940818405,43.34356939014605 12.027156859308366,44.29055940321511,43.34928291530965 12.027156877890238,44.290559398245435,43.3549971875344 12.027156896475965,44.290559393275,43.360712206866054 12.027156903910871,44.290559391286706,43.362998334138744 12.027156911346394,44.290559389298295,43.365284580954395 12.027156926218034,44.29055938532133,43.36985715740621 12.027156941090226,44.290559381344245,43.37442974323546 12.02715695596233,44.29055937736714,43.379002182179384 12.027157104678523,44.2905593375954,43.42471849386725 12.02715725338585,44.290559297822305,43.47042012047343 12.027157402084198,44.29055925804788,43.51610706513722 12.027158888550238,44.2905588602265,43.972169654091125 12.027160373999717,44.290558462257074,44.42676732163433 12.027161858334967,44.29055806413051,44.87990276739909 12.027163341468155,44.29055766584019,45.331578441215214 12.027166687091091,44.290556765473106,46.346561249204385 12.027170025537524,44.290555864250685,47.35412583491961 12.02717335645412,44.290554962229386,48.35428627034067 12.027176679792593,44.290554059515365,49.34705079557555 12.027179995793569,44.29055315625628,50.33242205653136 12.027181868228556,44.29055264520563,50.88646615387004 12.027183738592441,44.29055213407297,51.43814326858686 12.027185607024531,44.29055162289519,51.987451760547906 12.02718747368017,44.290551111710094,52.5343895327819 12.027189608639075,44.29055052655197,53.1576030844212 12.027191741756237,44.29054994149045,53.77770204981924 12.027193873307564,44.29054935658026,54.3946815146735 12.027196003572458,44.29054877187345,55.00853613152224 12.02719813282809,44.29054818741855,55.61926024861039 12.027200261344046,44.29054760325968,56.2268480519516 12.027202389377504,44.29054701943601,56.831293714921735 12.027203681159616,44.29054666517891,57.196713204168134 12.027204972903277,44.290546311064325,57.56097129175445 12.02720626465575,44.2905459570979,57.92406680793003 12.02720755646103,44.29054560328441,58.285998647606284 12.027211303741026,44.29054457801651,59.3291188091404 12.027215052603415,44.2905435541189,60.36242162595653 12.027218803587381,44.29054253158634,61.38589437433118 12.027222556959124,44.29054151035959,62.399533174918254 12.027226312720371,44.29054049033198,63.40334326268007 12.027227310303218,44.290540219684225,63.66821909295631 12.027228308031706,44.29053994910788,63.93240331738155 12.027229305897803,44.290539678599764,64.19589632554596 12.027230303892518,44.29053940815655,64.45869854221016 12.02723349509874,44.290538543979366,65.29421537528492 12.027236687138782,44.290537680315225,66.12269393220346 12.027239879571141,44.290536817045634,66.94415328731687 12.027243071910402,44.29053595405369,67.75861391188238 12.027246263645605,44.29053509122798,68.5660969611255 12.027250709163448,44.29053388901979,69.67968053864668 12.027255151170232,44.290532686702456,70.77981115959277 12.02725858714397,44.29053175563042,71.62236463645559 12.027262019798965,44.290530824323824,72.45690409034692 12.027265448740307,44.29052989274664,73.28344714162523 12.027268873669145,44.290528960884906,74.10200855882488 12.027273138272939,44.29052779856411,75.11150495663608 12.027277396173035,44.29052663586677,76.10862704158185 12.027281647437533,44.29052547288451,77.09338504967481 12.027285892340599,44.290524309738224,78.06578313449218 12.027290131326827,44.29052314656855,79.02582003519812 12.027296323506667,44.290521445130395,80.40806572476122 12.027302506391749,44.29051974444612,81.76380775774666 12.02730868221405,44.29051804495288,83.09300291505765 12.027314853091319,44.290516347011106,84.39560504050745 12.02732102083312,44.290514650877284,85.67157268524748 12.027327186822355,44.29051295669335,86.92087559014173 12.027330613047921,44.29051201603892,87.60361995538412 12.02733403910436,44.29051107598713,88.27812465196335 12.027337465033655,44.29051013651933,88.94439159512464 12.027340890835283,44.29050919760899,89.6024245191468 12.027344316470048,44.290508259223024,90.25222887694811 12.027346138638631,44.290507760250804,90.59454078533443 12.027347960725137,44.29050726140995,90.93452745347349 12.027349782712923,44.290506762693965,91.27219020455426 12.02735160458339,44.290506264096166,91.60753045643396 12.027355567542147,44.29050517977601,92.32904562375775 12.027359529618053,44.29050409591191,93.03959266789487 12.0273634905591,44.29050301243338,93.73918926643981 12.02736745010185,44.29050192927276,94.42785375299461 12.027369129107784,44.29050146991511,94.7166630664014 12.02737080779426,44.29050101059873,95.0035102817013 12.027372486141665,44.29050055131938,95.28839679526705 12.027377376238954,44.29049921274858,96.10763401743485 12.027382262843567,44.29049787436973,96.91025711882173 12.027387145572117,44.29049653611577,97.69629645641452 12.027392024099269,44.290495197937666,98.4657801849757 12.027398031909817,44.29049354837203,99.39160758096997 12.027404032654948,44.29049189886294,100.29235363870421 12.027410026203736,44.290490249431976,101.16805027684374 12.027416012584654,44.29048860013158,102.0187219789606 12.027421991961956,44.29048695103757,102.84438646302647 12.027429816566707,44.29048479070771,103.88841784475433 12.027437630437012,44.290482631120916,104.88954879032958 12.027445434508031,44.29048047251041,105.84778295560452 12.027453229737066,44.29047831509437,106.76311780028422 12.027461017024091,44.29047615906141,107.6355487186311 12.027469717735636,44.29047374961752,108.56043195466239 12.027478410386362,44.290471342235755,109.43165101337968 12.027487095623998,44.290468936992674,110.24921948505539 12.027495773872344,44.29046653390054,111.01316372067512 12.027504445360709,44.29046413291521,111.72352338200848 12.027513110162007,44.290461733946955,112.38035042689754 12.027520094757715,44.29045980019715,112.87121688636796 12.027527074930296,44.2904578676018,113.32732797743155 12.027534050617081,44.29045593607645,113.74872355715313 12.027541021756273,44.290454005532396,114.13544537060147 12.02754798829767,44.29045207587904,114.48753618344158 12.027554603320507,44.29045024314768,114.79003205571713 12.027561214163798,44.290448411061874,115.06133821016404 12.027567820852283,44.29044657954659,115.3014899419282 12.02757442344137,44.29044474852901,115.51052095485832 12.027585040374152,44.29044180280679,115.7816478733766 12.02759564745936,44.29043885791743,115.97237695839746 12.027606245432786,44.29043591360918,116.08279930173488 12.027615524126443,44.29043333423649,116.11359064630807 12.027616835194069,44.290432969658085,116.11297532399684 12.027627417750454,44.29043002587528,116.0629281164598 12.027637994125273,44.29042708211993,115.93263668527902 12.027648565233038,44.29042413831719,115.72203003659729 12.027659131721151,44.29042119448149,115.43098325044286 12.027671076991503,44.29041786515701,115.00464855031386 12.027683015881397,44.29041453636701,114.4748538532899 12.027694946357892,44.290411208778316,113.84120529001709 12.02770686497647,44.290407883308745,113.1032853109683 12.027718767024504,44.29040456107179,112.26069900123039 12.027730647044345,44.290401243252205,111.31312424816797 12.027742499688001,44.290397930924556,110.26035806109132 12.027754320803476,44.29039462483593,109.10235332368643 12.02776340857013,44.29039208123997,108.13814484393501 12.027770181045787,44.290390184508404,107.37760243262075 12.027776943245946,44.290388289654146,106.58241464981356 12.027783696166104,44.29038639642788,105.75268563804786 12.027790441142093,44.290384504511366,104.88853915335551 12.027797179792243,44.29038261353174,103.99011546727782 12.027803913934347,44.29038072308125,103.05756634270766 12.027810645473943,44.2903788327429,102.09104808839683 12.027817376271836,44.29037694212039,101.09071287902522 12.027824108005053,44.29037505086884,100.05669864906524 12.027830842027933,44.290373158724854,98.98911868830304 12.027837579237948,44.29037126553428,97.88805240620736 12.027844319955806,44.290369371275304,96.75353867357363 12.02784986879975,44.290367811912915,95.79494523775512 12.027855419233724,44.29036625205865,94.81368028183827 12.027860970373379,44.290364691927365,93.80970439531889 12.02786652103195,44.290363131793434,92.78296594103513 12.02787206976995,44.290361571977925,91.7334059820954 12.027877614973493,44.290360012830035,90.66096403758179 12.027883154958246,44.29035845470415,89.56558382954196 12.027888688092254,44.2903568979335,88.44721832913712 12.027894212927965,44.29035534280325,87.30583379466653 12.02790031286125,44.290353624855385,86.01653009522202 12.027906400341688,44.29035190932054,84.69904562267915 12.027911089331893,44.29035058711028,83.66311506332282 12.027915771065164,44.29034926625278,82.61044709014 12.027920446092052,44.29034794661199,81.5410775626624 12.027925115218483,44.290346628000925,80.45505142548153 12.027929779458091,44.29034531019278,79.35242134161392 12.027934439968815,44.29034399293509,78.23324563455809 12.027939097975452,44.290342675966755,77.09758562090244 12.027943754683013,44.29034135903648,75.94550242326872 12.027948411188463,44.29034004192139,74.77705340670775 12.027954706698155,44.29033826095924,73.1717207557334 12.027959552741816,44.29033688993469,71.91621952488632 12.027964400625843,44.29033551834206,70.64314515963966 12.027969250144384,44.29033414624967,69.35250428262634 12.027973320135096,44.290332994668205,68.25598270022644 12.02797739026846,44.29033184297526,67.14707487921724 12.027980684965797,44.29033091061879,66.2402414556241 12.027983978825642,44.290329978393906,65.32526837565143 12.02798727136756,44.29032904640285,64.40214490955651 12.027990562098674,44.29032811474855,63.470860664651944 12.027993850535411,44.290327183530124,62.531406284239985 12.027997767762804,44.29032607391968,61.400592292447264 12.028001680420592,44.29032496518725,60.25814362232902 12.028005588000745,44.29032385742676,59.10405674271267 12.028009490188676,44.29032275068989,57.93833412832486 12.02801338688017,44.290321644983415,56.76098430252611 12.028017278189678,44.29032054026851,55.572021807214725 12.028022111356588,44.29031916743615,54.07696802793164 12.028025452832185,44.290318217861845,53.03161516611427 12.028028791502932,44.29031726874881,51.97771260605448 12.028032127863712,44.290316319990175,50.91528140864338 12.028035462433731,44.29031537147599,49.84434343783469 12.02803605253354,44.29031520359831,49.65389419986153 12.028036642596279,44.29031503572435,49.463179236708015 12.02803723262459,44.290314867853546,49.272198664016095 12.028037822621126,44.29031469998538,49.08095259781206 12.02803900252923,44.29031436425485,48.697664441413075 12.028040182340835,44.290314028528684,48.31331566771445 12.028041362075161,44.29031369280305,47.9279071476426 12.028042541750214,44.2903133570744,47.541439716989856 12.028044873695046,44.29031269336372,46.77433372693801 12.028047205584027,44.29031202960759,46.00309825508584 12.028049537502119,44.290311365790764,45.22773814892373 12.02805186950558,44.29031070190418,44.44825738986151 12.02805420162083,44.29031003794516,43.6646590598272 12.028058484413659,44.2903088185243,42.21499560150111 12.028062767253529,44.290307598954854,40.75145960302954 12.028066298728577,44.290306593218524,39.53410691734624 12.028069829331653,44.290305587586616,38.307312432929294 12.028072607594039,44.290304796118605,37.33494578698654 12.028075384654153,44.29030400485656,36.35671979868103 12.028078160207727,44.29030321386345,35.372630805894346 12.028080933960473,44.290302423199165,34.38267565193226 12.028083705641638,44.29030163291757,33.38685199973953 12.028087267243299,44.29030061706827,32.097363795689866 12.028090824654614,44.29029960199615,30.798165509367163 12.028094377660736,44.2902985877355,29.489261949542776 12.028097926227627,44.29029757428241,28.170662292135926 12.028101470496862,44.29029656159684,26.842379825434456 12.02810501077025,44.290295549606526,25.504431549256342 12.028108547484038,44.290294538213196,24.156837607063338 12.028112081169985,44.29029352730118,22.799620439480137 12.02811561240558,44.29029251674816,21.432803659744273 12.028119141759731,44.290291506436475,20.05641077108905 12.028122669740302,44.290290496264014,18.670463871531926 12.028124367410756,44.290290010088015,17.999999992120113</coordinates>
            </LineString>
        </Placemark>
    </Document>
</kml>
