<?xml version="1.0" encoding="UTF-8"?>
<kml xmlns="http://www.opengis.net/kml/2.2" xmlns:gx="http://www.google.com/kml/ext/2.2">
    <Document id="1">
        <Style id="4">
            <LineStyle id="5">
                <color>641400F0</color>
                <colorMode>normal</colorMode>
            </LineStyle>
            <PolyStyle id="6">
                <color>641400F0</color>
                <colorMode>normal</colorMode>
                <fill>1</fill>
                <outline>1</outline>
            </PolyStyle>
        </Style>
        <open>1</open>
        <Placemark id="3">
            <name>Rocket Trajectory - Powered by RocketPy</name>
            <styleUrl>#4</styleUrl>
            <LineString id="2">
                <extrude>1</extrude>
                <altitudeMode>absolute</altitudeMode>
                <coordinates>12.027111000000001,44.290583000000005,18.0 12.027111000008748,44.290582999982796,18.00001936123143 12.027111000026279,44.29058299994832,18.000058157641508 12.02711100007893,44.290582999844766,18.00017467595178 12.02711100016681,44.29058299967194,18.00036915537166 12.027111000290017,44.29058299942964,18.000641816019957 12.027111003495161,44.290582993126186,18.007734908172264 12.027111010342335,44.29058297966009,18.02288793347007 12.027111020930763,44.290582958836204,18.046320479295716 12.027111129768983,44.290582744787876,18.287183126249335 12.027111342065897,44.29058232727096,18.75700334314982 12.027111668923984,44.29058168445059,19.48035130813992 12.027111723579075,44.29058157696234,19.601304868322142 12.027111743314384,44.290581537983144,19.645203671991805 12.027111763244921,44.290581498451985,19.689761190632336 12.02711180349631,44.290581418283026,19.78019884432794 12.02711184452803,44.29058133589519,19.873292076988115 12.027111886339618,44.29058125127734,19.969061525215267 12.027112260331876,44.29058046833406,20.861852898255144 12.02711268809985,44.290579526634204,21.948607499831702 12.027113172477337,44.29057841838786,23.239814643320216 12.027113719317352,44.29057713400729,24.745357929805508 12.027113859089166,44.290576802392636,25.134806612357664 12.027114003074727,44.290576460027815,25.536939872760442 12.02711415146282,44.29057610671595,25.95187117970666 12.027114753306883,44.2905746747666,27.630555574170238 12.027115434376794,44.2905730716743,29.497829596024612 12.027116212413294,44.29057128196923,31.55867388153145 12.027117110120523,44.29056928683676,33.81756784162859 12.027117712807106,44.29056799277111,35.25736699646167 12.027117795183175,44.2905678185832,35.44962704467263 12.027117878569056,44.29056764293462,35.64310674300181 12.027117962981187,44.29056746581266,35.837807523131886 12.027118134944043,44.290567107102255,36.23087748879022 12.027118169936069,44.29056703451593,36.31017740243913 12.027118173159213,44.29056702783094,36.317480115746335 12.02711817413733,44.290567025802346,36.319696097259616 12.027118175115586,44.290567023773576,36.321912231845744 12.027118177072191,44.29056701971586,36.32634464131072 12.027118179028816,44.290567015658056,36.330777165509076 12.02711818098529,44.290567011600366,36.335209638587806 12.027118200541638,44.290566971029925,36.37953155766046 12.027118220082771,44.29056693047132,36.423848364312704 12.027118239608741,44.29056688992449,36.46816005814931 12.027118434046352,44.29056648509585,36.91099570388639 12.027118627028171,44.29056608140245,37.35331961079869 12.027118818608729,44.29056567880552,37.79513133929556 12.0271190088429,44.29056527726601,38.2364304194939 12.027119435051132,44.29056437144628,39.23411514792432 12.02711985527273,44.29056347039559,40.229160703788 12.027120270146245,44.29056257365871,41.22155997307728 12.027120680307494,44.29056168078206,42.21130507394894 12.027121110062275,44.290560739306976,43.2561272349005 12.027121535984403,44.29055980112387,44.29795432905898 12.027121958804072,44.29055886571095,45.336774324815295 12.027122379238735,44.2905579325553,46.37257435489935 12.027122917316273,44.29055673552656,47.69959997730508 12.027123454063142,44.29055554036004,49.021582103412484 12.027123990878275,44.29055434605392,50.338488434320524 12.027124529102789,44.290553151647124,51.650285362243416 12.027125892584458,44.29055015157232,54.91553857050448 12.027127290981621,44.290547132147914,58.14792240002057 12.027128739500133,44.29054408240719,61.34689797267413 12.027130250236674,44.29054099357011,64.51198060550966 12.02713183210225,44.2905378590929,67.64277014572274 12.027132916294862,44.29053576644371,69.68696242364138 12.027134034902884,44.290533651286765,71.71608267343433 12.027135188363532,44.290531513228714,73.7301026698095 12.027136376611459,44.29052935222797,75.72901989459059 12.02713868835646,44.29052525344779,79.42416679626767 12.027141112271694,44.290521080206645,83.06702702778615 12.027143636856499,44.290516840026896,86.6582161396813 12.027146247405183,44.2905125427261,90.19853568775234 12.027148926812401,44.29050819987589,93.68891405325338 12.02715277246486,44.29050204479624,98.51114557438608 12.02715666370638,44.29049586195365,103.23946303398874 12.027160548562886,44.290489687678786,107.87637414403625 12.027164379585098,44.29048355552546,112.42403462548677 12.027168116562105,44.290477494288304,116.88417365293944 12.02717172809068,44.29047152678493,121.25810632330665 12.027172950316167,44.29046947673284,122.75910298050366 12.027174154016546,44.29046744051077,124.24982341373197 12.027175338693656,44.29046541850384,125.73029431935758 12.027176503983958,44.290463411001305,127.20053880921803 12.027177649654961,44.29046141819884,128.66057658158957 12.02718085808123,44.290455727460575,132.83370403201505 12.02718390422387,44.290450159315704,136.92153482177358 12.027186797772758,44.29044470743286,140.92417967244 12.027189553715502,44.29043936159943,144.8416097941445 12.027192190668476,44.29043410891789,148.67367347799376 12.0271947293015,44.29042893494537,152.42011110069132 12.027197190928781,44.290423824717074,156.0805734389586 12.027199596321598,44.29041876360943,159.65464522388274 12.027202459342416,44.29041268551274,163.8634336945976 12.027205298027779,44.29040663841826,167.94425034536172 12.027208136512053,44.29040060527011,171.8963703795473 12.027210992968703,44.29039457318901,175.71922072125807 12.02721387961277,44.29038853346318,179.41243622862794 12.02721680323165,44.290382481160464,182.97589439694627 12.027220203939079,44.29037552311368,186.90278431814687 12.027223652871141,44.29036854816709,190.6597880713833 12.027227142044397,44.29036156150253,194.24783182410735 12.027230660135956,44.290354570616714,197.66811581860915 12.027234193883631,44.29034758436981,200.9220252943358 12.027237729241596,44.290340612202506,204.01104962512588 12.027241252282566,44.29033366352559,206.93671288231323 12.027244749857946,44.29032674727371,209.7005183126343 12.027248975191108,44.29031834521709,212.86249966149464 12.02725312601316,44.290310016657855,215.78704556822717 12.02725718731652,44.290301772042895,218.47640561545683 12.027261147721498,44.29029361939654,220.9326103791156 12.027265334898368,44.29028485580398,223.34348950999652 12.027269386613062,44.29027621270651,225.4823822865421 12.027272562647935,44.290269311601406,227.01476471358967 12.027275647949466,44.29026249104603,228.37145445255206 12.027278643268907,44.29025575055565,229.55339046615504 12.02728155014209,44.29024908903082,230.56149947741818 12.027284370769227,44.29024250482027,231.39671353700342 12.02728752088652,44.29023500314691,232.1466359015554 12.027290565223211,44.29022759717339,232.66930891747862 12.027293510108697,44.29022028156233,232.96633432667423 12.027295878981304,44.29021428694035,233.04269997036695 12.027296363146098,44.29021304967512,233.03939331280077 12.027297838778312,44.2902092539501,232.98802864465478 12.027297921436686,44.290209040173586,232.98317710755865 12.027298004026662,44.290208826459505,232.97812793765414 12.027298169070438,44.290208399155674,232.96763442464538 12.027298333843078,44.29020797209939,232.95635075067378 12.027298498347047,44.29020754528834,232.9442772858941 12.027300129170353,44.29020329014857,232.7801823471948 12.027301736076579,44.29019905680021,232.53750567319304 12.02730332202851,44.29019484247715,232.21658469754124 12.027304890325134,44.29019064408336,231.81772350724452 12.027307302726765,44.29018413862566,231.04317105683862 12.027309696170704,44.29017764933373,230.08131636853668 12.027312086615304,44.290171161234994,228.93215730317712 12.027314489776149,44.29016465976104,227.59490948284585 12.02731691924681,44.29015813266686,226.06783732766007 12.027319383807031,44.29015157275244,224.34815235710442 12.02732188414404,44.29014498114972,222.4320262056863 12.02732440926408,44.290138370887504,220.31476269847883 12.02732681112355,44.29013209007811,218.10891593366657 12.027326839125015,44.29013201454531,218.0808547241659 12.027326865815278,44.2901319403351,218.052961623413 12.027326916607741,44.29013179452531,217.99750691374555 12.02732696229213,44.29013165386808,217.94270582006084 12.027327003001636,44.29013151822913,217.88854000853442 12.027327132778863,44.29013093352933,217.63697378763868 12.02732716361578,44.290130448639985,217.39788754122685 12.027327105985965,44.29013005300062,217.16984073796704 12.027326968836649,44.29012973758958,216.95160352717684 12.027326629069613,44.29012939721011,216.6392483024279 12.027326147822523,44.29012919959356,216.34380544243297 12.027325542620076,44.29012912706812,216.06287322416824 12.027324828033327,44.29012916494009,215.79445731168272 12.027324016035925,44.29012930113466,215.53692334709353 12.027322383277546,44.290129748593124,215.1068016795742 12.027320523991309,44.29013042476477,214.70020305767036 12.027318472377576,44.29013129515749,214.31252292007355 12.027316254593233,44.290132333390325,213.94027937003312 12.027313891753948,44.290133518166385,213.58069471369566 12.027311401121576,44.29013483207541,213.23152765926113 12.027307110104667,44.29013721060478,212.68104239358055 12.027302565957706,44.290139845079295,212.14748030193346 12.027297806024382,44.29014269783532,211.62643302324997 12.02729285962094,44.290145739306865,211.11464497058756 12.027287750433546,44.29014894560755,210.60966199583441 12.027282497879384,44.29015229715775,210.10964026700125 12.027273627839548,44.290158057750354,209.29799526628196 12.027264473993956,44.29016410637356,208.49173297943182 12.027255081663887,44.29017039734589,207.68822024273058 12.027245487816055,44.29017689341306,206.88580254002113 12.027235722979,44.2901835638139,206.08348812372023 12.027221689020852,44.290193232841645,204.9495979918779 12.027207422946292,44.290203139850504,203.8142278795141 12.027192972045851,44.290213237208235,202.6772467877693 12.027178373935742,44.29022348703099,201.53885909627348 12.027159984897848,44.29023645361641,200.1158013302631 12.02714146088119,44.290249562706514,198.6913911248426 12.027122837971342,44.290262777962035,197.26605931430822 12.02710414406284,44.29027607129183,195.8401275449167 12.027069701339995,44.29030061564382,193.2210167937521 12.027035184671126,44.29032525662185,190.60152252910422 12.027000649834633,44.290349938044436,187.9820408811485 12.026966131789445,44.29037462469566,185.36270889578768 12.026926719486825,44.29040282422908,182.36853352804218 12.026887379726903,44.29043097962034,179.37481299312105 12.02684812331902,44.29045907997416,176.38154126145787 12.026808956949731,44.29048711854874,173.38866099945065 12.026769010616125,44.29051571695409,170.3291500071934 12.026729164796938,44.29054424432788,167.27011099205953 12.0266894210496,44.290572699096394,164.21154778060367 12.026669156255007,44.290587207884656,162.64914383288328 12.026648918401358,44.29060169741875,161.08684909837837 12.026628707494945,44.29061616769184,159.5246690904101 12.02651564169989,44.2906971188307,150.74868503583906 12.026403429713715,44.29077745870617,141.97635789358318 12.026292072050438,44.29085718671221,133.20767937351349 12.026024122630895,44.291049027478195,111.84180703388166 12.025761246938854,44.291237234076405,90.49748510926955 12.025503440202378,44.29142181002319,69.17461913553376 12.025012447954623,44.29177333035161,27.41090402405873 12.024941326915283,44.29182424821556,21.22745730720211 12.024904366741207,44.29185070916261,17.999999886219918</coordinates>
            </LineString>
        </Placemark>
    </Document>
</kml>
