<?xml version="1.0" encoding="UTF-8"?>
<kml xmlns="http://www.opengis.net/kml/2.2" xmlns:gx="http://www.google.com/kml/ext/2.2">
    <Document id="1">
        <Style id="4">
            <LineStyle id="5">
                <color>641400F0</color>
                <colorMode>normal</colorMode>
            </LineStyle>
            <PolyStyle id="6">
                <color>641400F0</color>
                <colorMode>normal</colorMode>
                <fill>1</fill>
                <outline>1</outline>
            </PolyStyle>
        </Style>
        <open>1</open>
        <Placemark id="3">
            <name>Rocket Trajectory - Powered by RocketPy</name>
            <styleUrl>#4</styleUrl>
            <LineString id="2">
                <extrude>1</extrude>
                <altitudeMode>absolute</altitudeMode>
                <coordinates>12.027111000000001,44.290583,18.0 12.027111000000001,44.290583,18.0 12.027111000000001,44.290583,18.0 12.027111000000001,44.290583,18.0 12.027111000000001,44.290583,18.0 12.027111000000001,44.290583,18.0 12.027111000000001,44.290583,18.0 12.027111000000001,44.290583,18.0 12.027111000000064,44.29058299999988,18.000000084123556 12.027111000000398,44.290582999999216,18.00000052512133 12.027111000001211,44.29058299999762,18.000001595749726 12.027111000004203,44.290582999991734,18.000005541806825 12.027111000010757,44.29058299997885,18.000014188583513 12.02711100002253,44.29058299995569,18.00002971839462 12.027111000069173,44.290582999863965,18.000091248408264 12.027111000155513,44.29058299969415,18.000205141896934 12.027111000288413,44.29058299943278,18.000380456103816 12.02711100051133,44.29058299899439,18.000674511029505 12.027111000795534,44.29058299843545,18.001049416410442 12.02711100113278,44.290582997772205,18.001494290043542 12.027111001516325,44.29058299701789,18.002000234914867 12.027111002634502,44.29058299481881,18.003475264275767 12.027111003655326,44.2905829928112,18.0048218695147 12.02711100479985,44.2905829905603,18.00633165379617 12.027111006087928,44.29058298802708,18.008030803188664 12.02711100751195,44.29058298522651,18.009909281842084 12.027111008779032,44.290582982734584,18.011580733655773 12.027111010141105,44.290582980055845,18.013377492044956 12.027111011638308,44.29058297711134,18.015352506373542 12.027111013756077,44.29058297294641,18.018146131315266 12.02711101615766,44.2905829682233,18.021314144739705 12.027111018841559,44.29058296294496,18.024854571325054 12.02711102404751,44.29058295270661,18.03172192652947 12.027111030100698,44.29058294080201,18.039706903220026 12.02711103707511,44.29058292708569,18.048907099387606 12.027111038508268,44.29058292426714,18.050797630214483 12.02711103998136,44.29058292137005,18.052740838397913 12.027111041497985,44.29058291838737,18.054741471602963 12.027111044675024,44.29058291213919,18.058932416525654 12.027111048065604,44.29058290547106,18.06340505387816 12.027111051679608,44.29058289836352,18.068172412026357 12.027111055518102,44.2905828908145,18.073235906448627 12.027111073192055,44.29058285605574,18.096550250672085 12.027111086481804,44.29058282991926,18.114081231464063 12.02711109616683,44.29058281087207,18.12685709431542 12.027111106671121,44.29058279021364,18.14071367898515 12.027111114616712,44.290582774587314,18.15119499303457 12.027111122990028,44.29058275811982,18.162240531709475 12.027111131782398,44.29058274082817,18.173838861262876 12.027111141019363,44.29058272266216,18.18602367004526 12.027111150737259,44.29058270355031,18.19884289483323 12.027111160953954,44.290582683457494,18.21232010032451 12.027111180534506,44.29058264494911,18.238149503648213 12.027111196986757,44.290582612593035,18.259852257586367 12.027111214448121,44.29058257825239,18.28288616456208 12.027111232989762,44.290582541787195,18.307345104814498 12.027111252682138,44.290582503058886,18.333322019465864 12.027111273653261,44.29058246181571,18.360985778409272 12.027111278016022,44.290582453235615,18.366740851853997 12.027111282435417,44.29058244454415,18.37257063390729 12.027111286909728,44.29058243574468,18.378472855027734 12.027111296015118,44.29058241783742,18.390484100346082 12.027111305318908,44.290582399539986,18.40275706114839 12.02711131480692,44.290582380880245,18.415273037727918 12.02711131608842,44.29058237835996,18.416963511516975 12.02711131737292,44.29058237583378,18.418657939349398 12.02711131866045,44.290582373301646,18.42035636573601 12.027111319951045,44.290582370763474,18.422058835188608 12.027111321244739,44.290582368219205,18.423765392220716 12.02711132383839,44.29058236311837,18.427186770475274 12.027111326444706,44.29058235799262,18.430624855179612 12.027111329063956,44.290582352841426,18.434080002483647 12.027111356025939,44.290582299816236,18.469646515841237 12.027111361600877,44.29058228885221,18.477000614929725 12.02711136724075,44.290582277760464,18.484440372724777 12.02711137294587,44.290582266540405,18.49196620033085 12.027111384551,44.290582243717,18.50727494450657 12.027111396414856,44.29058222038476,18.522924979518958 12.027111408535925,44.29058219654669,18.538914312181365 12.027111433561627,44.29058214732951,18.571926611975083 12.02711145967835,44.29058209596667,18.606378112210702 12.027111486957482,44.29058204231776,18.642362986548257 12.027111520745335,44.29058197586836,18.686933751412475 12.027111550140308,44.2905819180583,18.725709710002043 12.027111580746631,44.29058185786592,18.76608360348201 12.027111612534062,44.29058179535069,18.808015539719214 12.027111651275165,44.29058171915992,18.859120310359447 12.027111658718,44.29058170452234,18.868938420045723 12.02711166621107,44.29058168978598,18.878822798264263 12.027111673754193,44.29058167495119,18.888773199920056 12.027111688992985,44.29058164498159,18.90887523554594 12.027111704439422,44.290581614603624,18.92925117963357 12.027111720099157,44.290581583806166,18.9499084985721 12.027111749056084,44.29058152685759,18.988106614733283 12.027111778746749,44.290581468465994,19.02727263006283 12.027111799560739,44.29058142753184,19.054729108599176 12.027111812694265,44.29058140153646,19.072131471712193 12.02711182590383,44.29058137522518,19.089711869355362 12.02711185028738,44.29058132637993,19.12229338230359 12.027111874954876,44.290581276414244,19.155513252561235 12.027111899934045,44.29058122527213,19.189409924849233 12.027111926530443,44.29058117024014,19.225775412798562 12.02711195352249,44.29058111380534,19.262959985796787 12.027111980924458,44.29058105593808,19.30098454874501 12.02711202395492,44.29058096395537,19.361230971219353 12.027112067958363,44.29058086856371,19.42348291727144 12.027112112893505,44.29058076983977,19.487692116365547 12.02711218775226,44.29058060259349,19.59602277878653 12.027112195429359,44.290580585254055,19.60722479579953 12.027112203128475,44.29058056783081,19.618475763603374 12.027112210850003,44.29058055032297,19.6297762006249 12.02711222636268,44.29058051504887,19.65252861307893 12.027112241971366,44.290580479424044,19.67548725170447 12.027112257680319,44.29058044344019,19.698657683960466 12.027112289418213,44.29058037035814,19.74565899124259 12.02711232160191,44.290580295753195,19.793565909967274 12.027112354245386,44.29058021959838,19.842396738946693 12.027112420908981,44.29058006264569,19.942827300175207 12.02711246642322,44.29057995443231,20.011919638256252 12.02711251264864,44.29057984366754,20.082520648267568 12.027112539348423,44.29057977930094,20.12349394953294 12.027112566279719,44.29057971410473,20.164957499201073 12.027112593473925,44.29057964801979,20.206950113743755 12.02711264878597,44.29057951293103,20.292688074724857 12.02711269096919,44.29057940937394,20.358329337297768 12.027112733964303,44.290579303415456,20.425424407028128 12.02711277779003,44.29057919502345,20.49399375448258 12.027112822422897,44.290579084245245,20.564005887711318 12.02711286780382,44.290578971195124,20.635385643155537 12.027112913880963,44.29057885597404,20.708066461051978 12.027112960647704,44.29057873859913,20.782035966222455 12.027113008137178,44.29057861901438,20.85732894018606 12.02711305638392,44.29057849716167,20.933981257448483 12.027113105400751,44.2905783730234,21.012002541387762 12.027113155191133,44.29057824659955,21.091390896583633 12.027113189684172,44.290578158846664,21.146455692289074 12.02711322459012,44.29057806993816,21.202213413610888 12.027113259956382,44.290577979790896,21.258716097693693 12.027113332223074,44.29057779551417,21.374121861974693 12.027113406761035,44.29057760554263,21.49296538292412 12.02711348364301,44.29057740977023,21.615305430690537 12.02711356285178,44.29057720825231,21.741098625406043 12.027113652742264,44.29057697975271,21.88356926346681 12.027113745393706,44.290576744461454,22.030092605543384 12.027113840938549,44.29057650218932,22.180770589626473 12.027113939555338,44.29057625267278,22.335748497978443 12.027113962330892,44.29057619513703,22.371454887574785 12.027113985272289,44.290576137218544,22.407387488799035 12.027114008381455,44.290576078914626,22.44354771514715 12.027114055120231,44.29057596112426,22.516565847575304 12.027114102583095,44.29057584171011,22.59054118843229 12.02711415081249,44.29057572060599,22.665511575594305 12.027114202663025,44.2905755907044,22.74586901474621 12.027114245302354,44.29057548411045,22.811762626394728 12.027114288524126,44.29057537625471,22.87839503460499 12.02711433230382,44.290575267181,22.945738797334183 12.027114421456156,44.29057504552483,23.082469272136496 12.027114438422348,44.290575003401536,23.108435027608643 12.027114455459664,44.29057496112046,23.134492152483052 12.027114472569046,44.29057491868029,23.160641359911278 12.02711450700825,44.290574833316505,23.21321923136033 12.02711454174707,44.29057474730006,23.26617399029916 12.02711457679315,44.290574660620074,23.3195113419846 12.027114945897477,44.29057375489587,23.875177382157293 12.027115016760114,44.290573582744145,23.980431995060258 12.027115088981956,44.29057340793025,24.087189080845114 12.027115162613455,44.29057323038721,24.195481221672505 12.027115240812268,44.290573042581464,24.30988790313743 12.027115320566043,44.290572851802025,24.425954916022764 12.02711540185708,44.29057265809009,24.54365268419109 12.027115569016537,44.29057226197342,24.783857639119553 12.027115742275452,44.29057185437673,25.030364183754504 12.027115921706423,44.290571435305054,25.283114292871222 12.027116107361076,44.290571004802395,25.542024692649388 12.027116138203612,44.29057093358117,25.58478626480621 12.027116169217928,44.29057086205065,25.62771259701239 12.027116200407445,44.29057079020639,25.670805764769465 12.027116263327525,44.29057064555664,25.757501943585442 12.027116326989756,44.29057049959848,25.844890361800097 12.027116391418916,44.2905703523005,25.93298522015518 12.027116483539666,44.29057014243315,26.058332410674726 12.027116577246927,44.29056992983621,26.185106957409428 12.027116672567663,44.29056971448458,26.313314875358913 12.027116794882074,44.29056943948396,26.47672438247703 12.027116919910602,44.290569159944745,26.642468359690145 12.027117047779283,44.29056887571769,26.810607844174204 12.027117198693306,44.290568542446216,27.007256418943527 12.027117353642835,44.29056820266653,27.207183572353603 12.02711751266389,44.29056785637573,27.410365003381035 12.02711765501961,44.29056754836237,27.590603860653086 12.027117769121332,44.29056730281945,27.733958473375964 12.02711788531401,44.29056705403113,27.878901016502624 12.027117976815891,44.29056685901177,27.992297896913108 12.02711806963865,44.29056666197268,28.106673016110584 12.027118163766726,44.29056646294262,28.222007999714567 12.027118355839702,44.29056605907736,28.455456927128523 12.027118470923883,44.29056581846721,28.59417652620432 12.027118587762935,44.29056557521709,28.73414324730339 12.027118706432525,44.29056532923943,28.875391070287513 12.027118949638021,44.29056482866681,29.161899263097958 12.027119104233897,44.29056451292046,29.34197102944214 12.027119262032558,44.29056419255884,29.52415811045591 12.027119423064066,44.29056386756914,29.708450527083418 12.027119754919223,44.29056320370353,30.083280061714028 12.027120099911066,44.290562521378824,30.466312852394346 12.027120458140608,44.29056182067902,30.857379435025592 12.027120914969947,44.29056093784256,31.346872399556815 12.027121392369047,44.29056002726653,31.848039345558945 12.027121891127802,44.29055908837302,32.36086843325904 12.027121989819719,44.29055890402496,32.46109884051516 12.027122089333849,44.290558718607315,32.56175830711038 12.0271221896601,44.2905585321352,32.66283865581409 12.027122392711215,44.290558156083634,32.86623200798921 12.027122598883773,44.290557776001926,33.07120894573157 12.027122808130827,44.290557391968164,33.277723037993155 12.027123020529636,44.29055700391198,33.48578772120966 12.027123286447456,44.29055652066206,33.74399826885089 12.027123462092481,44.29055620303088,33.913171783152706 12.027123639948472,44.29055588263811,34.08338272193466 12.027123819953601,44.290555559568276,34.254589855033295 12.027124186057828,44.29055490586297,34.59977598821176 12.027124221979328,44.290554841953245,34.63343726456744 12.02712425797353,44.290554777953716,34.667130851208114 12.027124294041029,44.290554713863735,34.700856931876366 12.027124366398107,44.2905545854102,34.76840724812492 12.027124439055653,44.29055445658738,34.83608977266916 12.027124512018386,44.29055432739038,34.90390594167216 12.02712458529114,44.29055419781421,34.971857220955044 12.027124791980144,44.29055383323897,35.16269407446162 12.027125001241604,44.290553465545734,35.3546319123669 12.02712521316615,44.29055309464392,35.547694785320544 12.027125376241658,44.29055281022517,35.69536890830861 12.027125540825375,44.29055252400184,35.84366413293818 12.027125706850676,44.2905522360565,35.9925453049251 12.027126043032782,44.29055165524272,36.29195980467334 12.027126384531961,44.29055106812641,36.593449622985936 12.02712666038515,44.29055059600255,36.83502110402629 12.027126939907234,44.2905501195956,37.07797504834824 12.027127223134693,44.29054963888757,37.32230064436263 12.027127509969125,44.29054915401209,37.56793309979457 12.027127915187727,44.29054847211339,37.912056722134146 12.027128231383685,44.290547942416154,38.17833583034903 12.027128551421121,44.290547408356005,38.445901580322754 12.027128875333416,44.29054686992152,38.71473823339577 12.027129535036954,44.29054577976305,39.25619224576102 12.027130060237385,44.290544917943315,39.68153547107359 12.027130489223126,44.290544217898564,40.025286733622224 12.027130924547807,44.29054351093138,40.37087598723529 12.027131366104923,44.29054279720416,40.718212805337885 12.027131878498409,44.290541973072294,41.117358852110435 12.027132398978337,44.29054114029517,41.51862585668412 12.027132927459427,44.29054029902881,41.92191165414031 12.027133808473915,44.29053890561182,42.58546249263063 12.027134543640834,44.290537750790364,43.131392648578796 12.027134692168197,44.290537518287856,43.24088591288431 12.0271348411876,44.29053728528129,43.35047695188257 12.027134990702729,44.29053705176778,43.460165766592986 12.027135291233666,44.290536583209395,43.67983671419232 12.02713559379232,44.29053611258828,43.899898727599826 12.02713589840757,44.29053563988191,44.1203517644385 12.02713620510274,44.2905351650737,44.34119387637079 12.02713667637775,44.290534437633745,44.678398093040464 12.027137152373879,44.29053370547163,45.01642051416195 12.027137632910776,44.290532968801244,45.35517654206678 12.027138117732523,44.290532227913396,45.69456105234644 12.027138698151912,44.29053134381351,46.09789840464042 12.027139284075988,44.29053045439303,46.501883199148196 12.027139875474813,44.29052955971861,46.906464398551684 12.027140894247465,44.29052802547728,47.59613290354695 12.027141615960243,44.29052694374021,48.079305296257104 12.027142345168679,44.29052585500667,48.563034186993036 12.027143081979425,44.29052475921802,49.047287676493504 12.027143927680378,44.29052350669277,49.59761849289697 12.02714478307838,44.290522245305496,50.14844071598394 12.027145648147204,44.29052097514602,50.699668605307004 12.027146522684218,44.29051969647761,51.251176073297216 12.02714740616462,44.29051840988235,51.80276119329405 12.027148297909916,44.29051711609045,52.354190805841185 12.027148436407973,44.29051691556447,52.4393740662205 12.027148575089063,44.29051671488222,52.52454843885251 12.027148713955707,44.29051651404138,52.609714329306684 12.027148992254919,44.29051611187521,52.78002214889367 12.02714927132709,44.290515709045806,52.95030096491159 12.027149551192071,44.29051530553463,53.12055394071745 12.02714983187001,44.29051490132282,53.29078426451816 12.027149980542227,44.290514687408944,53.38074246603766 12.027150129445685,44.29051447329572,53.47069464364787 12.02715027857908,44.29051425898463,53.56064025103815 12.027150577530833,44.290513829774326,53.74050975521139 12.027150877386147,44.290513399790704,53.920346347990126 12.027151178134371,44.290512969045636,54.100145774884304 12.027151479763948,44.290512537551855,54.27990358521728 12.027152460499774,44.29051113796246,54.86058086516139 12.027153449462919,44.29050973157133,55.44052689753048 12.027154445716617,44.290508319337036,56.01948058150593 12.027154758219915,44.29050787721895,56.200053802913196 12.0271550713405,44.290507434627074,56.38050369607943 12.027155385094083,44.29050699154667,56.56083263579404 12.027156014591107,44.29050610383395,56.92114282393845 12.027156646839375,44.29050521395953,57.28100453431343 12.027157281842754,44.29050432192464,57.640410279652336 12.02715791942,44.29050342791191,57.99931274809429 12.027158559379954,44.29050253211293,58.35766327400501 12.027159201643515,44.290501634608844,58.71543819798604 12.027161455651667,44.290498496411175,59.95667454507712 12.027161721772996,44.290498127058456,60.1017752555714 12.027161988252224,44.29049775744901,60.24677003662616 12.027162255094387,44.29049738757799,60.3916596449025 12.027162789885718,44.290496647033784,60.681126097865985 12.027163326186018,44.29049590538834,60.97018038664319 12.027163864021805,44.290495162616224,61.25882596997237 12.027164403414531,44.29049441869684,61.54706531316983 12.027164936815888,44.29049368402443,61.83088506791897 12.027165471696224,44.290492948270675,62.114299499068494 12.027166007945883,44.29049221154227,62.39728507227706 12.027166892079938,44.290490998726476,62.86144162315631 12.027167779390373,44.29048978378364,63.32432744719833 12.027168669779309,44.290488566805784,63.78592026537347 12.027170459777322,44.290486126739545,64.70521744959618 12.027172262260057,44.29048367830663,65.61936576168604 12.027174077178172,44.290481221501864,66.52836265945184 12.027176591567466,44.29047783115425,67.76946218146793 12.027179126076394,44.29047442794755,69.0002974020064 12.027181678389631,44.29047101390189,70.22055634173847 12.027184246280267,44.29046759091901,71.4299837597033 12.02718682809672,44.29046416031603,72.62846452564754 12.027189423235608,44.29046072237126,73.81610445299368 12.02719203084562,44.29045727758464,74.99298683854721 12.027197350454939,44.29045027687333,77.34573506600832 12.027202709088469,44.29044325554442,79.65546766155634 12.027208097702987,44.290436219310145,81.92307352278173 12.027213506839011,44.29042917426581,84.14948604705951 12.027218712215461,44.29042240568128,86.24986741608839 12.027223919114162,44.29041564047927,88.31396056054288 12.027229119212,44.2904088842948,90.34257259646348 12.027234304515328,44.290402142621986,92.33647153694588 12.027235676923363,44.290400356896185,92.85980273360057 12.02723704762071,44.290398572659505,93.38075360917469 12.027238416475914,44.290396790004976,93.89933663090828 12.027243951916176,44.29038957138539,95.9804236097904 12.027249446793947,44.290382386151364,98.02345817723267 12.027254894081626,44.29037523943738,100.02911254664184 12.027260287661171,44.2903681357981,101.99798476540961 12.027268168419354,44.290357699686666,104.8481651284528 12.02727590823644,44.290347376021735,107.62011667029664 12.027283499911643,44.29033717091514,110.31488120591126 12.02729094075614,44.290327087229635,112.93321860705572 12.027298232101161,44.290317124876104,115.47564266442191 12.027306303927977,44.29030600106215,118.25982986925982 12.02731420155634,44.29029502210139,120.94748883518625 12.02732193899285,44.29028417865432,123.5385646151545 12.027329532151176,44.29027345984081,126.03281674287899 12.027336997783843,44.29026285404064,128.42986293750837 12.027344352616817,44.29025234954921,130.72921864166136 12.027351612558824,44.290241935179886,132.93033998712008 12.02735879226158,44.29023160059832,135.0326589614664 12.027365904781004,44.29022133657753,137.03561870113023 12.027372961369766,44.29021113515148,138.93870552817143 12.027379971419915,44.29020098965391,140.74147544127936 12.027386942508585,44.29019089467882,142.4435743119968 12.02739388052303,44.290180845980366,144.04475265002327 12.027400789832571,44.290170840339364,145.54487384227934 12.027407673492235,44.29016087540745,146.94391699443824 12.027414533452124,44.2901509495505,148.24197430626205 12.027421370764374,44.29014106169635,149.43924452431267 12.027428185785078,44.29013121118655,150.5360238420772 12.027434978351984,44.29012139764914,151.53269459755796 12.02744174793822,44.29011162088967,152.42971298258433 12.02744849379845,44.29010188078836,153.22759593313637 12.02745521507918,44.29009217722486,153.9269081001549 12.02746191090691,44.29008251002024,154.52824901474435 12.027468580463612,44.29007287888646,155.0322412380563 12.02747522304374,44.2900632833895,155.4395190303022 12.027481838096907,44.29005372292254,155.75071767210727 12.027488425257685,44.29004419668837,155.96646330583684 12.027494984363459,44.29003470369056,156.08736344699082 12.027500106060872,44.290027285169685,156.11619765219876 12.027501515463536,44.29002524273192,156.11399645899343 12.027507119200177,44.29001711753343,156.06177636398192 12.027507561884036,44.29001647531319,156.05446433264837 12.027508004440866,44.29001583322828,156.04671873877584 12.027511828665642,44.29001028296556,155.96350063888758 12.027515643507167,44.29000474248491,155.84791837717296 12.027519449103865,44.28999921142651,155.7000561522166 12.027525878479754,44.289989857422064,155.37591267476168 12.027532282560419,44.28998052753343,154.9595746728049 12.027538662170233,44.28997121996335,154.4512527625126 12.027545018095129,44.28996193296869,153.85107337198878 12.027551350987546,44.28995266499133,153.15906531918674 12.027557661224392,44.28994341481946,152.3751323489043 12.027563948795533,44.289934181703835,151.4990698403564 12.02757021316557,44.289924965515596,150.53055544611578 12.027576453126812,44.289915766912216,149.46915142220183 12.02758266665867,44.289906587497896,148.31431083363034 12.027588850781612,44.28989742999293,147.0653899308885 12.027595001452882,44.28988829835829,145.72166509646124 12.027601113481202,44.28987919790143,144.2823553174632 12.027601683326022,44.289878347989806,144.14272600954368 12.027601757426403,44.28987823687552,144.12431125430368 12.02760183028498,44.289878127042854,144.1060076618209 12.027601973550869,44.28987790990734,144.06961973739178 12.02760211197834,44.28987769776536,144.03366425837362 12.0276022456929,44.28987749048739,143.9981293306701 12.02760281671192,44.289876574049025,143.8357066605713 12.027603296740411,44.2898757515221,143.68132565489893 12.027603695251003,44.28987501313238,143.53408889306962 12.027604020369951,44.2898743504948,143.3932267052706 12.027604387452254,44.28987347786732,143.19120315254042 12.027604622920478,44.28987274109741,143.000332302643 12.027604742990436,44.28987212345207,142.8190799745983 12.027604761178702,44.28987161098341,142.64616782751798 12.02760468862916,44.28987119219178,142.48054317054581 12.027604379885192,44.28987066545327,142.21134330739596 12.027603869988862,44.289870346411405,141.95739164175242 12.027603188855757,44.28987020419385,141.71587682712908 12.027602359587183,44.28987021495989,141.48463788546331 12.02760140090629,44.28987035938683,141.26193156306664 12.027600328154499,44.289870621641725,141.04633651544498 12.027598310906752,44.289871289627094,140.69831241218034 12.027596055702688,44.28987220347797,140.36277146730367 12.027593598348387,44.28987332624018,140.0365329851631 12.027590966661746,44.28987462920408,139.71719782681106 12.027588182835405,44.2898760894661,139.40291807599849 12.027585264805667,44.28987768851592,139.09226916983718 12.027579748071242,44.2898808529326,138.54162964361169 12.027573913903145,44.28988434588192,137.99465758914153 12.027567812492672,44.28988811558023,137.4484969996412 12.027561482928302,44.289892121705655,136.90140598163975 12.027554956836335,44.289896331639525,136.3523419680597 12.027548260154436,44.289900718635344,135.8007779043298 12.027540698696667,44.28990573813721,135.1890065795154 12.027532980871914,44.28991092029863,134.57395483972664 12.027525127722484,44.28991624343178,133.95582695431645 12.02751715738154,44.28992168884954,133.33491286339176 12.027509085531783,44.28992724039165,132.71154036070718 12.027500925731376,44.28993288408835,132.08604417390512 12.027492689862058,44.28993860769787,131.45874210977968 12.027484388283389,44.28994440054724,130.82992438988194 12.02747603000373,44.28995025335591,130.1998492531463 12.027467622893257,44.289956158016025,129.56873994950934 12.027459173825337,44.28996210744677,128.93678685468214 12.027450688801045,44.28996809546593,128.30415047781884 12.027442173058969,44.289974116676795,127.67096465557472 12.02743363120954,44.289980166329734,127.03734132529746 12.027425067183252,44.28998624037554,126.40336913601767 12.027416484468613,44.289992335220276,125.76912241393693 12.027407886108815,44.289998447728706,125.13466156871957 12.027399274748173,44.29000457517654,124.50003483766525 12.02739065268586,44.29001071519492,123.86528088598247 12.027382021938314,44.29001686570631,123.23043098528883 12.027373384262338,44.290023024900655,122.59551000914887 12.027364741183451,44.29002919120607,121.96053753508002 12.027356094031326,44.29003536325249,121.32552909974072 12.027347443964498,44.29004153984613,120.69049697198226 12.027338791992225,44.290047719947005,120.05545079869962 12.027330138993687,44.29005390264913,119.42039814611695 12.027321485734717,44.290060087163305,118.78534493127063 12.027312832882396,44.290066272802065,118.15029576725915 12.027304181017756,44.2900724589666,117.51525423954192 12.027295530646878,44.290078645135345,116.88022312589136 12.027286882242073,44.29008483082149,116.24520470029503 12.027278236146545,44.29009101567132,115.6102004046561 12.027269592696989,44.290097199337765,114.9752115409274 12.02726095218649,44.29010338151871,114.34023909856879 12.027252314869662,44.29010956195174,113.70528381524615 12.027243680968187,44.29011574040825,113.07034624624242 12.027235050675085,44.290121916689316,112.43542680724781 12.027226424158407,44.290128090621636,111.80052580663589 12.027217801564468,44.29013426205439,111.1656434707791 12.027209183020654,44.2901404308562,110.53077996369743 12.027200568637861,44.290146596912706,109.89593540223346 12.027191958512638,44.29015276012436,109.26110986773985 12.027183352729029,44.29015892040445,108.62630341505263 12.027174751360203,44.29016507767754,107.99151607935642 12.027166154469846,44.29017123187792,107.35674788141576 12.027157562113397,44.290177382948386,106.72199883154404 12.0271489743391,44.29018353083917,106.08726893259903 12.027140391188956,44.29018967550691,105.45255818223055 12.027131812699508,44.2901958169139,104.81786657455496 12.027123238902563,44.2902019550273,104.18319410139236 12.027114669825789,44.290208089818535,103.54854075317121 12.027106105493264,44.29021422126274,102.91390651958102 12.027097545925935,44.290220349338284,102.27929139003567 12.027088991142017,44.29022647402634,101.64469535399476 12.027080441157356,44.29023259531051,101.0101184011797 12.027071895985728,44.290238713176564,100.37556052171198 12.027063355639106,44.2902448276121,99.74102170619516 12.027054820127907,44.29025093860635,99.10650194575598 12.027046289461168,44.29025704614992,98.47200123205704 12.02703776364675,44.29026315023471,97.8375195572896 12.027029242691471,44.29026925085359,97.20305691415328 12.027020726601256,44.290275348000456,96.56861329582755 12.027012215381239,44.29028144166995,95.93418869593839 12.027003709035876,44.29028753185743,95.29978310852275 12.026995207569025,44.290293618558884,94.66539652799256 12.026986710984026,44.29029970177082,94.03102894909941 12.026978219283773,44.29030578149021,93.39668036690087 12.02696973247076,44.290311857714435,92.76235077672871 12.026961250547147,44.29031793044123,92.12804017415948 12.026952773514793,44.29032399966866,91.49374855498749 12.026944301375297,44.290330065395,90.85947591520018 12.026935834130029,44.29033612761878,90.22522225095587 12.026927371780175,44.290342186338776,89.59098755856371 12.026918914326735,44.29034824155389,88.95677183446574 12.026910461770694,44.290354293263086,88.32257507466483 12.02690201411266,44.29036034146566,87.6883972762213 12.026893571353217,44.290366386160976,87.05423843601595 12.026885133492877,44.29037242734849,86.42009855091827 12.026876700532075,44.290378465027686,85.78597761783698 12.026868272471173,44.290384499198154,85.15187563373175 12.026859849310469,44.29039052985956,84.51779259561238 12.026851431050204,44.29039655701158,83.88372850053423 12.026843017690569,44.29040258065402,83.24968334559308 12.02683460923171,44.29040860078665,82.61565712792007 12.02682620567374,44.290414617409326,81.98164984467721 12.02681780701673,44.29042063052192,81.34766149305335 12.026809413260734,44.29042664012436,80.71369207026069 12.026801024405772,44.290432646216566,80.07974157353166 12.026792640451847,44.2904386487985,79.44581000011625 12.026784261398939,44.290444647870125,78.81189734727964 12.026775887247018,44.29045064343144,78.17800361230012 12.026767517996031,44.290456635482464,77.54412879246738 12.026759153645923,44.29046262402319,76.91027288508084 12.026750794196618,44.2904686090537,76.2764358874484 12.02674243964804,44.29047459057398,75.64261779688515 12.026734090000096,44.2904805685841,75.0088186107124 12.02672574525269,44.29048654308412,74.37503832625673 12.026717405405723,44.29049251407412,73.74127694084927 12.026709070459088,44.29049848155414,73.10753445182499 12.02670074041267,44.290504445524256,72.47381085652206 12.026692415266353,44.29051040598456,71.8401061522814 12.026684095020018,44.290516362935136,71.20642033644616 12.026675779673544,44.29052231637606,70.57275340636141 12.026667469226803,44.29052826630742,69.93910535937376 12.02665916367967,44.29053421272929,69.305476192831 12.026650863032012,44.29054015564179,68.67186590408195 12.0266425672837,44.29054609504501,68.0382744904762 12.0266342764346,44.29055203093902,67.40470194936385 12.026625990484577,44.290557963323934,66.77114827809542 12.026617709433499,44.290563892199856,66.13761347402166 12.026609433281225,44.29056981756687,65.50409753449345 12.02660116202762,44.29057573942509,64.87060045686168 12.026592895672545,44.29058165777461,64.23712223847711 12.026584634215903,44.2905875726155,63.60366287745305 12.026576377657529,44.29059348394787,62.97022237066188 12.026568125997267,44.29059939177186,62.33680071513121 12.026559879234972,44.290605296087556,61.70339790817271 12.026551637370485,44.290611196895085,61.070013946738 12.026543400403673,44.29061709419452,60.436648828342 12.026535168334407,44.290622987986,59.80330255053772 12.026526941162546,44.29062887826957,59.16997511074117 12.026518718887951,44.290634765045404,58.5366665063223 12.026510501510483,44.290640648313556,57.90337673463532 12.026502289030038,44.29064652807409,57.27010579379153 12.026494081446453,44.29065240432716,56.63685368065989 12.026485878759564,44.29065827707289,56.0036203922631 12.026477680969228,44.29066414631135,55.37040592590709 12.026469488075282,44.290670012042696,54.73721027853647 12.026461300077592,44.29067587426701,54.10403344766039 12.026453116976027,44.29068173298439,53.47087543082607 12.026444938770448,44.290687588194935,52.8377362254433 12.026436765460714,44.290693439898746,52.20461582887564 12.026428597046683,44.29069928809595,51.57151423847074 12.026420433528255,44.29070513278659,50.938431452335145 12.026412274905258,44.290710973970825,50.305367467329916 12.026404121177537,44.290716811648736,49.67232228047013 12.026395972344945,44.29072264582045,49.03929588905472 12.026387828407318,44.2907284764861,48.40628829002029 12.02637968936452,44.29073430364576,47.77329948086942 12.026371555216423,44.29074012729953,47.1403294591428 12.026363425962886,44.290745947447526,46.507378222243354 12.026355301603768,44.29075176408986,45.87444576752759 12.02634718213893,44.2907575772266,45.241532092336065 12.026339067568266,44.29076338685786,44.60863719477024 12.026330957891613,44.29076919298375,43.975761071682754 12.026322853108807,44.290774995604366,43.342903720080656 12.026314753219705,44.29078079471985,42.7100651372556 12.026306658224142,44.2907865903303,42.0772453201359 12.026298568121984,44.29079238243584,41.444444266217396 12.026290482913101,44.29079817103653,40.81166197303414 12.026282402597355,44.2908039561325,40.178898437982035 12.026274327174605,44.29080973772383,39.54615365841043 12.026266256644705,44.29081551581067,38.91342763165272 12.026258191007559,44.29082129039305,38.28072035580522 12.026250130262996,44.29082706147109,37.648031827712074 12.026242074410858,44.29083282904495,37.01536204437224 12.026234023451,44.2908385931147,36.382711003070064 12.026225977383255,44.29084435368048,35.750078700725595 12.026217936207493,44.29085011074238,35.11746513482792 12.026209899923582,44.29085586430051,34.48487030290445 12.026201868531384,44.29086161435496,33.852294202344076 12.026193842030757,44.29086736090582,33.21973683048905 12.026185820421562,44.290873103953224,32.58719818466557 12.026177803703693,44.290878843497225,31.954678262964855 12.026169791876987,44.29088457953795,31.322177062222593 12.026161784941282,44.29089031207554,30.6896945794297 12.026153782896435,44.290896041110074,30.057230811863253 12.02614578574228,44.290901766641674,29.42478575643507 12.026137793478684,44.290907488670435,28.792359410627533 12.026129806105518,44.290913207196496,28.15995177196147 12.026121823622644,44.290918922219916,27.52756283781881 12.02611384602992,44.290924633740794,26.895192605534724 12.026105873327204,44.29093034175926,26.262841072428316 12.026097905514396,44.29093604627538,25.63050823658573 12.026089942591328,44.29094174728929,24.998194094834247 12.026081984557841,44.29094744480108,24.365898644156808 12.02607403141379,44.29095313881088,23.733621881823293 12.026066083159012,44.29095882931878,23.101363804737343 12.026058139793374,44.29096451632492,22.469124410374697 12.026050201316746,44.29097019982937,21.836903696249642 12.02604226772899,44.29097587983224,21.204701659737214 12.02603433902996,44.29098155633362,20.572518298165566 12.026026415219524,44.29098722933363,19.94035360884675 12.026018496297574,44.29099289883234,19.308207589861887 12.026010582263947,44.290998564829884,18.676080238029925 12.026002673118478,44.29100422732637,18.0439715503259 12.026002123105577,44.29100462110413,17.999999999998142</coordinates>
            </LineString>
        </Placemark>
    </Document>
</kml>
