<?xml version="1.0" encoding="UTF-8"?>
<kml xmlns="http://www.opengis.net/kml/2.2" xmlns:gx="http://www.google.com/kml/ext/2.2">
    <Document id="1">
        <Style id="4">
            <LineStyle id="5">
                <color>641400F0</color>
                <colorMode>normal</colorMode>
            </LineStyle>
            <PolyStyle id="6">
                <color>641400F0</color>
                <colorMode>normal</colorMode>
                <fill>1</fill>
                <outline>1</outline>
            </PolyStyle>
        </Style>
        <open>1</open>
        <Placemark id="3">
            <name>Rocket Trajectory - Powered by RocketPy</name>
            <styleUrl>#4</styleUrl>
            <LineString id="2">
                <extrude>1</extrude>
                <altitudeMode>absolute</altitudeMode>
                <coordinates>12.027111000000001,44.290583000000005,18.0 12.027111000000001,44.290583000000005,18.0 12.027111000000131,44.29058299999974,18.000000289545213 12.027111000001026,44.29058299999798,18.000002269068762 12.027111000003568,44.29058299999298,18.000007897943167 12.027111000009567,44.29058299998118,18.00002117335499 12.0271110000209,44.29058299995889,18.000046251889415 12.027111000068018,44.29058299986623,18.000150524803757 12.027111000159012,44.290582999687274,18.000351896981428 12.027111000307952,44.29058299939436,18.000681508746197 12.02711100050099,44.290582999014724,18.00110870522956 12.027111000751711,44.29058299852163,18.001663563657033 12.027111001060225,44.290582997914896,18.002346313306855 12.027111001851088,44.29058299635953,18.004096518158907 12.027111002874353,44.29058299434711,18.00636103909873 12.02711100413085,44.290582991876,18.009141707711848 12.027111029772149,44.29058294144816,18.065886766771175 12.027111079637654,44.290582843379404,18.176240808209855 12.027111154538222,44.29058269607509,18.3419982859434 12.02711172353893,44.29058157704129,19.601216026464993 12.027111729592622,44.29058156511175,19.614623662828187 12.027111735668365,44.290581553114826,19.62809079390567 12.027111747863932,44.29058152898611,19.655144139998825 12.027111760147605,44.29058150458745,19.682435842940194 12.027111772519309,44.290581479918494,19.70996628016208 12.027111898168753,44.2905812243654,19.99185160423669 12.027112032454998,44.29058094265463,20.29695622782404 12.027112175980037,44.29058063458556,20.625625948766913 12.027112329810738,44.290580300041185,20.978205212338978 12.027112537601196,44.29057984762855,21.449919541033577 12.027112767956158,44.290579354492586,21.959686271912986 12.027113026497824,44.29057882102167,22.50813616339229 12.027113320330074,44.29057824784095,23.095883775908714 12.027113658106618,44.290577635813264,23.723522595296036 12.027113756896757,44.2905774661316,23.89775217781064 12.027113859743404,44.290577293785596,24.07487103223471 12.027113966866143,44.290577118799526,24.254889414459086 12.027114078491817,44.29057694119865,24.437817400312888 12.027114620722012,44.290576141150176,25.265282512991657 12.027115272782048,44.2905752947109,26.14844773559149 12.027116057205477,44.29057440438873,27.08800410155305 12.027116997821285,44.29057347275103,28.08456745746355 12.02711811892748,44.290572502258925,29.138683982023252 12.027118480669689,44.290572214313045,29.454725911323514 12.027118860098192,44.29057192333877,29.77564618341746 12.027119257751528,44.29057162937708,30.101456128310044 12.027119674150923,44.290571332464445,30.432167034236457 12.027119907231254,44.290571170747285,30.61298221792832 12.027120146012145,44.29057100818136,30.795234617298302 12.027120390567841,44.2905708447705,30.978926051478656 12.027121265580652,44.29057028323737,31.61386919740638 12.027122210728871,44.29056971206754,32.26552405213546 12.02712322823216,44.290569131265386,32.933969082549794 12.027124319944653,44.290568540754855,33.619290068833195 12.027125806617363,44.29056778099723,34.50889191115748 12.02712741554605,44.29056700495868,35.42576012466756 12.027129147172122,44.290566211878726,36.37012953405208 12.027131056098982,44.290565377030795,37.37081689682245 12.027133091711779,44.29056452185303,38.40120312591273 12.027135250406058,44.29056364491829,39.461616893081434 12.027137062249233,44.290562926906105,40.331515152270875 12.027138947034752,44.29056219318977,41.22101683457745 12.027140901779038,44.290561442975736,42.1303000579612 12.027142544232595,44.29056081892717,42.88599005483029 12.027144229498633,44.29056018304154,43.6550235040579 12.027145956066025,44.290559534978435,44.43748930659494 12.027147722572925,44.290558874442915,45.233472640257084 12.027149527862,44.29055820119292,46.04305440191501 12.027151978979942,44.290557288927246,47.13721138942134 12.027154495401232,44.29055635375597,48.25555536036171 12.027157076923,44.29055539563106,49.39823257996571 12.027159228635293,44.29055459825804,50.34715744134544 12.02716142522529,44.29055378592523,51.31237582283244 12.027163668217135,44.29055295887377,52.29393997197268 12.027165959560737,44.29055211740179,53.29189397841432 12.027168301559433,44.29055126184736,54.306274247826806 12.027170696769561,44.29055039256747,55.337110515855095 12.027173147885378,44.29054950991549,56.38442730021329 12.027175657616949,44.29054861421881,57.448245779337825 12.027178228563628,44.29054770575671,58.52858613153893 12.027181863599576,44.290546437623675,60.0393167174087 12.027185623493127,44.290545146074926,61.58132552579974 12.02718951150762,44.29054383102736,63.15471115551971 12.02719258916007,44.290542803571086,64.3859781366073 12.027195743080574,44.290541761605596,65.63595231851889 12.027198972336134,44.290540704683266,66.90472190372994 12.027199520790669,44.2905405260564,67.11919808624133 12.027200071311306,44.29054034699242,67.33420534793765 12.027200623889293,44.29054016748873,67.54974416888518 12.027201178515522,44.29053998754265,67.76581503406474 12.027201322301584,44.29053994093449,67.82177965279224 12.02720132692797,44.29053993943487,67.82358032303914 12.027201331554496,44.290539937935215,67.82538103014075 12.02720134080783,44.290539934935836,67.82898251805418 12.027201350061473,44.2905399319364,67.83258407389195 12.027201363431525,44.290539927602715,67.83778768582623 12.027201376801557,44.290539923269044,67.84299123212124 12.02720139017157,44.290539918935394,67.84819471277883 12.027201523870648,44.29053987559962,67.9002259099714 12.027201657567751,44.290539832265296,67.95225054584516 12.027201791262783,44.290539788932406,68.00426862257703 12.027203128079384,44.290539355677744,68.52408910686728 12.027204464586287,44.29053892254546,69.04325609015821 12.02720580069,44.29053848951822,69.56177174689006 12.027207136297106,44.29053805657944,70.07963823507812 12.02720773294962,44.290537863137935,70.31084611618623 12.027208329476617,44.29053766970965,70.54192497104732 12.02720892587023,44.290537476293316,70.77287498053178 12.027211512850442,44.29053663686397,71.7738450633238 12.027214096585304,44.29053579755044,72.77240459711058 12.027216676579481,44.29053495828869,73.76856541687081 12.027219252435009,44.29053411903708,74.76233762592841 12.027222510686016,44.29053305536238,76.01842021166068 12.027225761578986,44.290531991698266,77.27069018647244 12.027229005165083,44.290530928119345,78.51915366804269 12.027232241794161,44.290529864745714,79.76381178929256 12.02723547206422,44.29052880172981,81.00466134622894 12.027238252394271,44.290527885717445,82.07134189458468 12.027241029163203,44.29052697021312,83.13518083341921 12.027243802981838,44.29052605532759,84.19617130300865 12.027246574457038,44.29052514116241,85.25430613542615 12.027249344159953,44.2905242278049,86.30957845497238 12.027253933412908,44.29052271552423,88.0527704689698 12.02725852091895,44.2905212058319,89.78806058569502 12.027263107606034,44.290519698743644,91.51544611421153 12.027267693546033,44.29051819412074,93.23494131219007 12.027272278020446,44.29051669170106,94.94657646340607 12.02727685971149,44.29051519114796,96.65039402066589 12.027280204821244,44.2905140956674,97.89045701437749 12.02728354684225,44.290513000856905,99.12639275462567 12.02728688509549,44.29051190659949,100.35822088390798 12.02729021897709,44.290510812802275,101.58595952830562 12.02729354799711,44.29050971940117,102.80962461851477 12.02729752318379,44.290508411992704,104.26799391515061 12.027301490629013,44.290507105106606,105.72057076896631 12.027305450364834,44.2905057988016,107.16736632076497 12.027309354883478,44.29050450899224,108.5909649934279 12.027312572721232,44.29050344495191,109.76178921520686 12.027315786426378,44.290502381539596,110.92877224873376 12.027318996444262,44.29050131883859,112.091911622834 12.027322203232556,44.29050025692721,113.25120438120994 12.027325407231583,44.29049919587392,114.40664765280455 12.02732912641939,44.29049796437083,115.74411873908419 12.02733284289177,44.29049673415773,117.07638983185568 12.027336557004622,44.290495505258704,118.40346219925958 12.02734026894324,44.29049427766468,119.72534047314088 12.02734397873004,44.290493051337684,121.0420326131175 12.027347686237034,44.29049182621585,122.3535497005938 12.027352504145044,44.29049023456551,124.05151106479462 12.027357316920456,44.29048864461353,125.7407788080595 12.027362123581804,44.29048705615343,127.42139212908488 12.027366923158423,44.29048546900475,129.09339004207698 12.027371714832512,44.290483883034646,130.75680842338767 12.027376498035741,44.29048229816915,132.41167808457834 12.027381272499538,44.290480714395,134.05802379673148 12.027386038263511,44.29047913175408,135.6958640865753 12.02739079564615,44.290477550331815,137.32521169944712 12.02739554518284,44.2904759702413,138.94607466847106 12.0274002875422,44.29047439160532,140.55845784634437 12.027405023433936,44.290472814539285,142.1623647050711 12.027410933294613,44.29047084619019,144.15469255718477 12.027416835108578,44.29046888054675,146.13380337269007 12.027421524456846,44.290467318893555,147.6986904659429 12.027426209185503,44.290465758932925,149.25524214198109 12.027430889200993,44.29046420060401,150.80347716132349 12.027435564263563,44.29046264382541,152.34341744627207 12.027440234032749,44.290461088505396,153.87508710532583 12.027444898117885,44.2904595345523,155.39851134693217 12.027451071682917,44.290457476507925,157.40538553663504 12.02745723381307,44.29045542057774,159.3978691897304 12.02746338403183,44.29045336668626,161.37601144704527 12.027468310412319,44.290451720066415,162.9529759112851 12.02747322915256,44.29045007478309,164.52075005592948 12.027478140477932,44.2904484308801,166.07934843076325 12.027483044699755,44.29044678841133,167.6287833997531 12.027487942178485,44.290445147432976,169.16906590425003 12.027492833284189,44.29044350799595,170.7002063363967 12.02750018640393,44.290441042528,172.98838322042954 12.027507526703664,44.29043858070078,175.25590142690663 12.02751300974344,44.29043674141068,176.9387173141102 12.02751848585231,44.29043490409568,178.61002609888007 12.027523954911324,44.290433068693794,180.2698559208645 12.027529416719428,44.29043123513376,181.91823675223253 12.027534871034465,44.29042940334341,183.5551994293113 12.02754031761234,44.290427573257055,185.18077473625516 12.027547999321277,44.29042499039402,187.4581433079099 12.02755566482993,44.29042241073837,189.71291788885532 12.027561676968835,44.29042038589458,191.4689007365372 12.027567679244038,44.29041836303476,193.21100475579576 12.02757367190207,44.29041634218894,194.9392565975655 12.027579655250161,44.290414323392916,196.65368094291853 12.027585629615382,44.29041230668048,198.3543014966871 12.027591595307442,44.2904102920767,200.04114191635216 12.027599336989397,44.290407676657814,202.21314589969327 12.027607064846613,44.29040506480484,204.36196713365504 12.027614779041125,44.290402456458764,206.48766787797013 12.027621603289996,44.2904001480127,208.352023661679 12.027628416670936,44.29039784217617,210.19832567060482 12.027635219034796,44.290395538875984,212.0266227849384 12.027642010243413,44.29039323804732,213.8369632353957 12.027648790206376,44.29039093963967,215.62939360266222 12.027655558904598,44.29038864361947,217.40395814465214 12.02766231639971,44.290386349969815,219.16069849236794 12.027669062829647,44.29038405868748,220.89965368267374 12.027677421416147,44.29038121804508,223.0333658308244 12.027684196423857,44.29037891420162,224.74583033764932 12.027690960947853,44.2903766127898,226.4403463275138 12.027697715222084,44.290374313810716,228.116948522674 12.027704459441022,44.290372017255805,229.77567218079832 12.027711193750642,44.2903697231063,231.41655343060629 12.027719485491959,44.290366897062384,233.41569324970743 12.027727762402634,44.290364074567634,235.38782303410707 12.02773602450837,44.290361255546536,237.33301511024519 12.027744271800344,44.290358439922635,239.25134192863808 12.027752504274055,44.29035562762608,241.1428748990852 12.027763289367726,44.29035194062133,243.58550439214645 12.027774049196394,44.290348259155266,245.98222606636716 12.027782122370706,44.29034549492985,247.75400775734678 12.027790181719217,44.290342733787774,249.49997697126574 12.0277982274795,44.29033997571442,251.22018920592515 12.027806259887726,44.29033722069371,252.91469882620663 12.027814279170897,44.29033446870682,254.583559440535 12.02782228553969,44.29033171973062,256.22682426068906 12.027838150370345,44.29032626846256,259.41501526659556 12.027850868585729,44.29032189446717,261.90525093077343 12.02786128194005,44.29031831049436,263.9004930493368 12.027871674333326,44.29031473129318,265.85232828124566 12.027882045946708,44.29031115677262,267.7608729483328 12.027892396997837,44.290307586853544,269.62623976454984 12.027902727745426,44.29030402146836,271.4485375796033 12.027918431035067,44.29029859723481,274.1427194839336 12.027930626434365,44.29029438091476,276.1716095669087 12.027942794902911,44.290290170705745,278.1404013369441 12.027954936977508,44.290285966526454,280.04925265809976 12.027967053156024,44.29028176828882,281.89831858990306 12.027979143887796,44.29027757589687,283.68775211286436 12.027993719197681,44.29027251807244,285.7705052375195 12.028008258590482,44.29026746844996,287.7666834857673 12.028022762671744,44.29026242684716,289.67654207103993 12.028037232039829,44.29025739308925,291.5003293318808 12.028051667307015,44.29025236701288,293.23828573309663 12.02806606910733,44.29024734846692,294.8906433092914 12.02808043809569,44.29024233730991,296.45762592094223 12.028094774942206,44.29023733340524,297.93945012368437 12.028111778001112,44.29023139390637,299.5905676920326 12.028128737732116,44.290225464232726,301.1219696375041 12.028145655277717,44.290219544144335,302.53398604420545 12.028162531793567,44.29021363338718,303.8269359281178 12.02817936847326,44.29020773168816,305.0011271382403 12.028196166568135,44.29020183875364,306.05685461511155 12.028212927406058,44.290195954268384,306.99439813879144 12.028229652405967,44.290190077895836,307.8140188681298 12.02824634309171,44.29018420927755,308.515955401211 12.028263001095224,44.290178348033855,309.10041912057386 12.028279628147462,44.290172493766356,309.5675887617196 12.028296226051994,44.290166646063795,309.91760424854385 12.028309629050346,44.29016192142506,310.11505207482105 12.028323015110336,44.29015720060049,310.23596579816285 12.028336385096228,44.2901524833969,310.28034623235646 12.02833745082527,44.290152107300706,310.28058987051077 12.028349739757648,44.29014776964795,310.2481688386836 12.028353705897,44.290146369368706,310.22384141823534 12.028354609534691,44.290146050304614,310.2171747319061 12.028355513105723,44.290145731255556,310.2101564964776 12.028360448427792,44.29014398847757,310.16656797915385 12.028365381776377,44.29014224614545,310.11248321845915 12.028370313163805,44.290140504256705,310.04789788813605 12.028380223744408,44.290137002841625,309.8862172814723 12.028390126413326,44.29013350321884,309.68201315586697 12.02840002105996,44.29013000541603,309.43523916481854 12.028409907475066,44.29012650948343,309.1458453087077 12.028422876136702,44.290121921996835,308.70103925826885 12.028435829126597,44.290117338081686,308.1825540904205 12.028448765289234,44.29011275800632,307.5902981980223 12.02846168334359,44.29010818206694,306.9242070794595 12.028474581993764,44.29010361056229,306.1842543426177 12.028485772151067,44.290099642479774,305.48140495704 12.028496946157622,44.29009567808994,304.7228591811955 12.02850810360802,44.29009171748533,303.9086941974032 12.028519244347619,44.29008776070085,303.0390180396908 12.02853036848892,44.29008380771017,302.1139666413807 12.028533875245964,44.290082561145375,301.81060435568537 12.02853738040195,44.290081314946455,301.5017495425804 12.02854088397506,44.290080069109294,301.18740766339175 12.02854438598519,44.290078823629315,300.8675842856826 12.028551228017593,44.29007638971654,300.2265143327039 12.02855806432489,44.29007395711245,299.5645575529014 12.028564895078837,44.290071525778174,298.88175585162367 12.028571720444456,44.29006909567656,298.178149797342 12.028574482130193,44.290068112216275,297.8873947751962 12.028577242965733,44.29006712895069,297.59323874298485 12.028580002958549,44.29006614587814,297.2956840159349 12.028587611544012,44.290063435252556,296.45733654345537 12.028595213850359,44.2900607260677,295.5931905450585 12.028602809877517,44.29005801832555,294.70328094173135 12.028608050109337,44.29005614988127,294.0739128655321 12.028610047778656,44.29005543749486,293.8306602905294 12.028610206358541,44.29005538076349,293.81122639861036 12.028610363525893,44.29005532436004,293.79191479846963 12.028610675072457,44.29005521220049,293.75353285326935 12.028610981115953,44.29005510131859,293.7156268210542 12.028611281799687,44.29005499168105,293.67818378803406 12.028612627038918,44.29005449215318,293.5080557269992 12.028613869740084,44.290054016432556,293.3467262566126 12.028615020566248,44.2900535620441,293.1932347330763 12.028616088665137,44.290053126864436,293.0467572134766 12.0286175612158,44.29005250246543,292.83742341652044 12.028618885435511,44.29005191251082,292.640455023537 12.028620079564758,44.29005135276646,292.45421066909773 12.028621158809619,44.29005081970249,292.2773224946105 12.028622135708595,44.29005031040825,292.1086636535573 12.028623612596382,44.290049479426294,291.8339285730567 12.028624858689865,44.29004870205374,291.5770540774628 12.028625908493044,44.29004797028031,291.3349517503493 12.028626788603464,44.2900472779311,291.1052491243584 12.028627520562473,44.29004662000495,290.88603134604654 12.028628122015453,44.290045992405076,290.6757354311072 12.028628866931834,44.290045013904304,290.34476539376806 12.028629346810696,44.29004409700931,290.0301719368383 12.028629601365905,44.290043232499144,289.72853613267597 12.028629661560744,44.2900424131845,289.4372423478212 12.028629552172294,44.29004163331248,289.15424229573586 12.028629293281044,44.290040888220624,288.8779221850999 12.028628607050702,44.29003975732869,288.44591344107226 12.028627633241264,44.29003869338336,288.0237895495229 12.028626413740913,44.29003768665984,287.6086996321479 12.02862498212457,44.290036729363926,287.19856116995885 12.028623365721046,44.29003581515198,286.79185952916833 12.028620325241612,44.290034375141374,286.1197062302075 12.028616917351126,44.2900330209491,285.4508977832679 12.028613207698585,44.2900317373419,284.78347167328445 12.028609248476346,44.290030512210606,284.11635106233376 12.028605081791513,44.29002933578702,283.449021508847 12.02859894586743,44.29002775110577,282.51121720182954 12.02859254532623,44.290026228957814,281.5723533660539 12.028585940006076,44.290024755463946,280.6325208181182 12.028579175718768,44.29002331999863,279.6919557399289 12.028571702345761,44.29002179678749,278.67141646045104 12.028564119473677,44.29002030033421,277.6504289437345 12.02855645394698,44.29001882441194,276.6291508979069 12.028548726284631,44.290017364260784,275.60769698509847 12.02853298661947,44.29001444927509,273.54419251033346 12.028517144481993,44.29001156359461,271.48065569888564 12.028501247715516,44.290008696117255,269.4172029906539 12.02848532433552,44.29000584034091,267.35385563590506 12.028468630395775,44.290002855493874,265.19184956631426 12.028451937908912,44.28999987637515,263.0300783639719 12.028435254353184,44.28999690124817,260.86854714684057 12.028426916283275,44.28999541464979,259.787720064194 12.028418581814222,44.289993928731846,258.7069405457814 12.028410250964797,44.28999244348989,257.6262132678735 12.028401923875416,44.289990958886904,256.5455384260758 12.028393600681365,44.28998947489573,255.46491710781174 12.028385281472785,44.289987991495344,254.38434909172392 12.02836866350577,44.289985027876476,252.22444420706415 12.02835206205112,44.289982066481386,250.06475257558833 12.028335477340715,44.28997910725561,247.90527429646366 12.028318913439692,44.289976150876974,245.74652432269608 12.028221535148093,44.28995875201812,233.01473112729457 12.028124747076127,44.289941426672065,220.29033182314174 12.028028549421933,44.28992417467996,207.57331038996 12.027739829362389,44.289872196490506,168.97212350747108 12.02745654855721,44.28982089412953,130.43840761551493 12.027398721084873,44.28981038327645,122.48911383466273 12.027391508302394,44.289809071368836,121.4956503158051 12.027384298133951,44.28980775978587,120.50221196469577 12.027377090053472,44.28980644846211,119.50879005363974 12.027362678005344,44.289803826324594,117.52196824564655 12.027348270015906,44.289801204689795,115.53516360007656 12.027333864497892,44.28979858336029,113.54836466733575 12.02730354005463,44.28979306511535,109.36558583206437 12.027273218221525,44.289787547186016,105.18280533565546 12.027242897208314,44.28978202934976,101.00002150132974 12.027137218486995,44.28976279779595,86.4215824853246 12.027031539565476,44.28974356611121,71.84310992433228 12.026641236385514,44.28967253693233,17.99988345872329</coordinates>
            </LineString>
        </Placemark>
    </Document>
</kml>
